(Generated by svg_to_gcode.pyw)
G21
G90
G94
G17
G54
G0 F3000
(contour 9 reversed)
G0 X-24.2316 Y-43.6409 A0
G1 F1200
G1 X-24.2316 Y-41.4334 A165.4276 F16853.9128 (y_theta)
(contour 6)
G0 X-4.8481 Y-18.745 A165.4276
G1 F1200
G1 X-4.8481 Y-19.4317 A105.5934 F35952.6094 (y_theta)
(contour 1)
G0 X19.7275 Y3.0538 A105.5934
G1 F1200
G1 X19.7275 Y-3.0566 A254.3036 F29229.5393 (y_theta)
G1 X19.7275 Y-3.0566 A614.3205 F41329.5755 (y_theta)
G1 X19.7271 Y-3.0566 A974.3098 F41330.0157 (x_theta)
G1 X19.7271 Y-3.0593 A1334.2069 F41330.0157 (y_theta)
G1 X19.7271 Y-3.0593 A1694.2238 F41329.5755 (y_theta)
G1 X19.7267 Y-3.0593 A2054.2131 F41330.0157 (x_theta)
G1 X19.7267 Y-3.0621 A2414.1102 F41330.0157 (y_theta)
G1 X19.7267 Y-3.0621 A2774.1271 F41329.5755 (x_theta)
G1 X19.7262 Y-3.0621 A3134.1164 F41330.0157 (x_theta)
G1 X19.7262 Y-3.0649 A3494.0136 F41330.0157 (y_theta)
G1 X19.7262 Y-3.0649 A3854.0306 F41329.5755 (x_theta)
G1 X19.7258 Y-3.0649 A4214.0198 F41330.0157 (x_theta)
(contour 5 reversed)
G0 X9.6661 Y16.242 A4214.0198
G1 F1200
G1 X9.6661 Y17.2442 A4167.8801 F31576.7188 (y_theta)
(contour 8)
G0 X40.9567 Y25.029 A4167.8801
G1 F1200
G1 X43.1885 Y25.029 A4332.6273 F16853.9588 (x_theta)
(contour 2)
G0 X49.8978 Y0.9165 A4332.6273
G1 F1200
G1 X49.8976 Y0.9165 A3972.6255 F16532.221 (x_theta)
G1 X49.8976 Y0.9165 A3612.6292 F16532.2597 (x_theta)
G1 X49.8976 Y0.9291 A3252.8014 F16532.221 (y_theta)
G1 X49.8974 Y0.9291 A2892.7996 F16532.221 (x_theta)
G1 X49.8974 Y0.9291 A2532.8033 F16532.2597 (y_theta)
G1 X49.8974 Y0.9416 A2172.9731 F16532.221 (y_theta)
G1 X49.8971 Y0.9416 A1812.9713 F16532.221 (x_theta)
G1 X49.8971 Y0.9416 A1452.975 F16532.2597 (x_theta)
G1 X49.8971 Y0.9539 A1093.1425 F16532.221 (y_theta)
G1 X49.8969 Y0.9539 A733.1407 F16532.221 (x_theta)
G1 X49.8969 Y0.9539 A373.1444 F16532.2597 (x_theta)
G1 X49.8969 Y0.966 A13.3098 F16532.221 (y_theta)
(contour 10)
G0 X43.7555 Y-23.7423 A13.3098
G1 F1200
G1 X43.7555 Y-24.0241 A386.2757 F16551.0394 (y_theta)
(contour 7 reversed)
G0 X70.7985 Y-37.1628 A386.2757
G1 F1200
G1 X70.7985 Y37.0763 A694.3704 F5122.5722 (y_theta)
(contour 3)
G0 X42.4744 Y67.6162 A694.3704
G1 F1200
G1 X42.4744 Y67.6161 A1054.3704 F10332.6158 (y_theta)
G1 X42.4744 Y67.6161 A1414.3701 F10332.6176 (x_theta)
G1 X42.4745 Y67.6161 A1774.3698 F10332.6158 (x_theta)
G1 X42.4745 Y67.6161 A2134.3698 F10332.6158 (y_theta)
G1 X42.4745 Y67.6161 A2494.3695 F10332.6176 (x_theta)
G1 X42.4745 Y67.6161 A2854.3693 F10332.6158 (x_theta)
G1 X42.4745 Y67.6161 A3214.3693 F10332.6158 (y_theta)
G1 X42.4745 Y67.6161 A3574.369 F10332.6176 (x_theta)
G1 X42.4746 Y67.6161 A3934.3688 F10332.6158 (x_theta)
G1 X42.4746 Y67.616 A4294.3687 F10332.6158 (y_theta)
G1 X42.4746 Y67.616 A4654.3685 F10332.6176 (x_theta)
G1 X42.4746 Y67.616 A5014.3682 F10332.6158 (x_theta)
(contour 4 reversed)
G0 X2.8199 Y79.9096 A5014.3682
G1 F1200
G1 X-6.5737 Y79.9096 A4730.8416 F10309.9444 (x_theta)
G0 X157.1545 Y157.1545 A4730.8416 (park NE)
M2
