(theta calibration pattern)
(ratio used: 12.03324 motor deg per bed deg)
(marks at bed angle 0: start, after +360 commanded deg, after +720)
(if the three marks do not land on each other, the ratio is wrong)
(Generated by svg_to_gcode.pyw)
G21
G90
G94
G17
G54
G0 F3000
M5
G4 P0.8
(contour 8 reversed)
G0 X120.2082 Y-120.2082 A0
M3
G4 P10
G1 F700
G1 X120.2082 Y-116.6458 A10.3687 F2154.3577 (y_theta)
G1 X116.6994 Y-116.6458 A0.1583 F2153.9131 (x_theta)
G1 X113.1371 Y-116.6458 A-10.527 F2213.2882 (x_theta)
G1 X113.1371 Y-113.1371 A0 F2213.7433 (y_theta)
G1 X109.573 Y-113.1371 A-11.0325 F2277.0995 (x_theta)
G1 X109.573 Y-109.6301 A-0.1794 F2276.5602 (y_theta)
G1 X109.573 Y-106.066 A11.2119 F2344.2553 (y_theta)
G1 X106.066 Y-106.066 A0 F2344.808 (x_theta)
G1 X102.5 Y-106.066 A-11.787 F2417.3255 (x_theta)
G1 X102.5 Y-102.561 A-0.205 F2416.6634 (y_theta)
G1 X102.5 Y-98.9949 A11.992 F2494.4668 (y_theta)
G1 X98.9949 Y-98.9949 A0 F2495.1462 (x_theta)
G1 X95.4267 Y-98.9949 A-12.6523 F2578.8671 (x_theta)
G1 X95.4267 Y-95.4921 A-0.2364 F2578.0427 (y_theta)
G1 X95.4267 Y-91.9239 A12.8888 F2668.2919 (y_theta)
G1 X91.9239 Y-91.9239 A-0 F2669.1391 (x_theta)
G1 X88.353 Y-91.9239 A-13.6548 F2766.7573 (x_theta)
G1 X88.353 Y-88.4237 A-0.2758 F2765.7145 (y_theta)
G1 X88.353 Y-84.8528 A13.9307 F2871.524 (y_theta)
G1 X84.8528 Y-84.8528 A0 F2872.5977 (x_theta)
G1 X81.2788 Y-84.8528 A-14.8299 F2987.7426 (x_theta)
G1 X81.2788 Y-81.3557 A-0.3258 F2986.3983 (y_theta)
G1 X81.2788 Y-77.7817 A15.1558 F3112.0122 (y_theta)
G1 X77.7817 Y-77.7817 A0 F3113.3991 (x_theta)
(contour 1)
M5
G4 P0.8
G0 X60 Y0 A0
M3
G4 P2.5
G1 F700
G1 X64.5833 Y0 A0 F700 (x_theta)
G1 X69.1667 Y0 A0 F700 (x_theta)
G1 X73.75 Y0 A0 F700 (x_theta)
G1 X78.3333 Y0 A0 F700 (x_theta)
G1 X82.9167 Y0 A0 F700 (x_theta)
G1 X87.5 Y0 A0 F700 (x_theta)
G1 X92.0833 Y0 A0 F700 (x_theta)
G1 X96.6667 Y0 A0 F700 (x_theta)
G1 X101.25 Y0 A0 F700 (x_theta)
G1 X105.8333 Y0 A0 F700 (x_theta)
G1 X110.4167 Y0 A0 F700 (x_theta)
G1 X115 Y0 A0 F700 (x_theta)
G1 X119.5833 Y0 A0 F700 (x_theta)
G1 X124.1667 Y0 A0 F700 (x_theta)
G1 X128.75 Y0 A0 F700 (x_theta)
G1 X133.3333 Y0 A0 F700 (x_theta)
G1 X137.9167 Y0 A0 F700 (x_theta)
G1 X142.5 Y0 A0 F700 (x_theta)
G1 X147.0833 Y0 A0 F700 (x_theta)
G1 X151.6667 Y0 A0 F700 (x_theta)
G1 X156.25 Y0 A0 F700 (x_theta)
G1 X160.8333 Y0 A0 F700 (x_theta)
G1 X165.4167 Y0 A0 F700 (x_theta)
G1 X170 Y0 A0 F700 (x_theta)
(contour 10 reversed)
M5
G4 P0.8
G0 X170 Y-0 A0
M3
G4 P2.5
G1 F700
G1 X169.8958 Y-0 A18.0499 F2839.845 (x_theta)
G1 X169.7917 Y-0 A36.0997 F2841.5867 (x_theta)
G1 X169.6875 Y-0 A54.1496 F2843.3306 (x_theta)
G1 X169.5833 Y-0 A72.1994 F2845.0765 (x_theta)
G1 X169.4792 Y-0 A90.2493 F2846.8247 (x_theta)
G1 X169.375 Y-0 A108.2992 F2848.5749 (x_theta)
G1 X169.2708 Y-0 A126.349 F2850.3274 (x_theta)
G1 X169.1667 Y-0 A144.3989 F2852.082 (x_theta)
G1 X169.0625 Y-0 A162.4487 F2853.8387 (x_theta)
G1 X168.9583 Y-0 A180.4986 F2855.5976 (x_theta)
G1 X168.8542 Y-0 A198.5485 F2857.3587 (x_theta)
G1 X168.75 Y-0 A216.5983 F2859.122 (x_theta)
G1 X168.6458 Y-0 A234.6482 F2860.8874 (x_theta)
G1 X168.5417 Y-0 A252.698 F2862.655 (x_theta)
G1 X168.4375 Y-0 A270.7479 F2864.4248 (x_theta)
G1 X168.3333 Y-0 A288.7978 F2866.1968 (x_theta)
G1 X168.2292 Y-0 A306.8476 F2867.971 (x_theta)
G1 X168.125 Y-0 A324.8975 F2869.7474 (x_theta)
G1 X168.0208 Y-0 A342.9473 F2871.526 (x_theta)
G1 X167.9167 Y-0 A360.9972 F2873.3067 (x_theta)
G1 X167.8125 Y-0 A379.0471 F2875.0897 (x_theta)
G1 X167.7083 Y-0 A397.0969 F2876.875 (x_theta)
G1 X167.6042 Y-0 A415.1468 F2878.6624 (x_theta)
G1 X167.5 Y-0 A433.1966 F2880.4521 (x_theta)
G1 X167.3958 Y-0 A451.2465 F2882.2439 (x_theta)
G1 X167.2917 Y-0 A469.2964 F2884.0381 (x_theta)
G1 X167.1875 Y-0 A487.3462 F2885.8344 (x_theta)
G1 X167.0833 Y-0 A505.3961 F2887.633 (x_theta)
G1 X166.9792 Y-0 A523.4459 F2889.4338 (x_theta)
G1 X166.875 Y-0 A541.4958 F2891.2369 (x_theta)
G1 X166.7708 Y-0 A559.5457 F2893.0422 (x_theta)
G1 X166.6667 Y-0 A577.5955 F2894.8498 (x_theta)
G1 X166.5625 Y-0 A595.6454 F2896.6597 (x_theta)
G1 X166.4583 Y-0 A613.6952 F2898.4718 (x_theta)
G1 X166.3542 Y-0 A631.7451 F2900.2862 (x_theta)
G1 X166.25 Y-0 A649.795 F2902.1028 (x_theta)
G1 X166.1458 Y-0 A667.8448 F2903.9217 (x_theta)
G1 X166.0417 Y-0 A685.8947 F2905.7429 (x_theta)
G1 X165.9375 Y-0 A703.9445 F2907.5664 (x_theta)
G1 X165.8333 Y-0 A721.9944 F2909.3922 (x_theta)
G1 X165.7292 Y-0 A740.0443 F2911.2203 (x_theta)
G1 X165.625 Y-0 A758.0941 F2913.0507 (x_theta)
G1 X165.5208 Y-0 A776.144 F2914.8834 (x_theta)
G1 X165.4167 Y-0 A794.1938 F2916.7184 (x_theta)
G1 X165.3125 Y-0 A812.2437 F2918.5557 (x_theta)
G1 X165.2083 Y-0 A830.2936 F2920.3953 (x_theta)
G1 X165.1042 Y-0 A848.3434 F2922.2372 (x_theta)
G1 X165 Y-0 A866.3933 F2924.0815 (x_theta)
G1 X164.8958 Y-0 A884.4431 F2925.9281 (x_theta)
G1 X164.7917 Y-0 A902.493 F2927.777 (x_theta)
G1 X164.6875 Y-0 A920.5429 F2929.6283 (x_theta)
G1 X164.5833 Y-0 A938.5927 F2931.4819 (x_theta)
G1 X164.4792 Y-0 A956.6426 F2933.3378 (x_theta)
G1 X164.375 Y-0 A974.6924 F2935.1962 (x_theta)
G1 X164.2708 Y-0 A992.7423 F2937.0568 (x_theta)
G1 X164.1667 Y-0 A1010.7922 F2938.9198 (x_theta)
G1 X164.0625 Y-0 A1028.842 F2940.7852 (x_theta)
G1 X163.9583 Y-0 A1046.8919 F2942.653 (x_theta)
G1 X163.8542 Y-0 A1064.9417 F2944.5231 (x_theta)
G1 X163.75 Y-0 A1082.9916 F2946.3956 (x_theta)
G1 X163.6458 Y-0 A1101.0415 F2948.2705 (x_theta)
G1 X163.5417 Y-0 A1119.0913 F2950.1478 (x_theta)
G1 X163.4375 Y-0 A1137.1412 F2952.0275 (x_theta)
G1 X163.3333 Y-0 A1155.191 F2953.9096 (x_theta)
G1 X163.2292 Y-0 A1173.2409 F2955.794 (x_theta)
G1 X163.125 Y-0 A1191.2908 F2957.6809 (x_theta)
G1 X163.0208 Y-0 A1209.3406 F2959.5702 (x_theta)
G1 X162.9167 Y-0 A1227.3905 F2961.4619 (x_theta)
G1 X162.8125 Y-0 A1245.4403 F2963.356 (x_theta)
G1 X162.7083 Y-0 A1263.4902 F2965.2526 (x_theta)
G1 X162.6042 Y-0 A1281.5401 F2967.1515 (x_theta)
G1 X162.5 Y-0 A1299.5899 F2969.053 (x_theta)
G1 X162.3958 Y-0 A1317.6398 F2970.9568 (x_theta)
G1 X162.2917 Y-0 A1335.6896 F2972.8631 (x_theta)
G1 X162.1875 Y-0 A1353.7395 F2974.7718 (x_theta)
G1 X162.0833 Y-0 A1371.7894 F2976.683 (x_theta)
G1 X161.9792 Y-0 A1389.8392 F2978.5967 (x_theta)
G1 X161.875 Y-0 A1407.8891 F2980.5128 (x_theta)
G1 X161.7708 Y-0 A1425.9389 F2982.4314 (x_theta)
G1 X161.6667 Y-0 A1443.9888 F2984.3524 (x_theta)
G1 X161.5625 Y-0 A1462.0387 F2986.2759 (x_theta)
G1 X161.4583 Y-0 A1480.0885 F2988.202 (x_theta)
G1 X161.3542 Y-0 A1498.1384 F2990.1304 (x_theta)
G1 X161.25 Y-0 A1516.1882 F2992.0614 (x_theta)
G1 X161.1458 Y-0 A1534.2381 F2993.9949 (x_theta)
G1 X161.0417 Y0 A1552.288 F2995.9309 (x_theta)
G1 X160.9375 Y-0 A1570.3378 F2997.8694 (x_theta)
G1 X160.8333 Y0 A1588.3877 F2999.8104 (x_theta)
G1 X160.7292 Y0 A1606.4375 F3001.7539 (x_theta)
G1 X160.625 Y0 A1624.4874 F3003.6999 (x_theta)
G1 X160.5208 Y0 A1642.5373 F3005.6485 (x_theta)
G1 X160.4167 Y0 A1660.5871 F3007.5996 (x_theta)
G1 X160.3125 Y0 A1678.637 F3009.5532 (x_theta)
G1 X160.2083 Y0 A1696.6868 F3011.5093 (x_theta)
G1 X160.1042 Y0 A1714.7367 F3013.4681 (x_theta)
G1 X160 Y0 A1732.7866 F3015.4293 (x_theta)
G1 X159.8958 Y0 A1750.8364 F3017.3931 (x_theta)
G1 X159.7917 Y0 A1768.8863 F3019.3595 (x_theta)
G1 X159.6875 Y0 A1786.9361 F3021.3284 (x_theta)
G1 X159.5833 Y0 A1804.986 F3023.2999 (x_theta)
G1 X159.4792 Y0 A1823.0359 F3025.274 (x_theta)
G1 X159.375 Y0 A1841.0857 F3027.2507 (x_theta)
G1 X159.2708 Y0 A1859.1356 F3029.2299 (x_theta)
G1 X159.1667 Y0 A1877.1854 F3031.2117 (x_theta)
G1 X159.0625 Y0 A1895.2353 F3033.1962 (x_theta)
G1 X158.9583 Y0 A1913.2852 F3035.1832 (x_theta)
G1 X158.8542 Y0 A1931.335 F3037.1728 (x_theta)
G1 X158.75 Y0 A1949.3849 F3039.1651 (x_theta)
G1 X158.6458 Y0 A1967.4347 F3041.1599 (x_theta)
G1 X158.5417 Y0 A1985.4846 F3043.1574 (x_theta)
G1 X158.4375 Y0 A2003.5345 F3045.1575 (x_theta)
G1 X158.3333 Y0 A2021.5843 F3047.1602 (x_theta)
G1 X158.2292 Y0 A2039.6342 F3049.1656 (x_theta)
G1 X158.125 Y0 A2057.684 F3051.1736 (x_theta)
G1 X158.0208 Y0 A2075.7339 F3053.1843 (x_theta)
G1 X157.9167 Y0 A2093.7838 F3055.1976 (x_theta)
G1 X157.8125 Y0 A2111.8336 F3057.2135 (x_theta)
G1 X157.7083 Y0 A2129.8835 F3059.2322 (x_theta)
G1 X157.6042 Y0 A2147.9333 F3061.2535 (x_theta)
G1 X157.5 Y0 A2165.9832 F3063.2774 (x_theta)
G1 X157.3958 Y0 A2184.0331 F3065.3041 (x_theta)
G1 X157.2917 Y0 A2202.0829 F3067.3334 (x_theta)
G1 X157.1875 Y0 A2220.1328 F3069.3654 (x_theta)
G1 X157.0833 Y0 A2238.1826 F3071.4002 (x_theta)
G1 X156.9792 Y0 A2256.2325 F3073.4376 (x_theta)
G1 X156.875 Y0 A2274.2824 F3075.4777 (x_theta)
G1 X156.7708 Y0 A2292.3322 F3077.5205 (x_theta)
G1 X156.6667 Y0 A2310.3821 F3079.5661 (x_theta)
G1 X156.5625 Y0 A2328.4319 F3081.6143 (x_theta)
G1 X156.4583 Y0 A2346.4818 F3083.6653 (x_theta)
G1 X156.3542 Y0 A2364.5317 F3085.719 (x_theta)
G1 X156.25 Y0 A2382.5815 F3087.7755 (x_theta)
G1 X156.1458 Y0 A2400.6314 F3089.8347 (x_theta)
G1 X156.0417 Y0 A2418.6812 F3091.8967 (x_theta)
G1 X155.9375 Y0 A2436.7311 F3093.9614 (x_theta)
G1 X155.8333 Y0 A2454.781 F3096.0288 (x_theta)
G1 X155.7292 Y0 A2472.8308 F3098.0991 (x_theta)
G1 X155.625 Y0 A2490.8807 F3100.1721 (x_theta)
G1 X155.5208 Y0 A2508.9305 F3102.2478 (x_theta)
G1 X155.4167 Y0 A2526.9804 F3104.3264 (x_theta)
G1 X155.3125 Y0 A2545.0303 F3106.4077 (x_theta)
G1 X155.2083 Y0 A2563.0801 F3108.4919 (x_theta)
G1 X155.1042 Y0 A2581.13 F3110.5788 (x_theta)
G1 X155 Y0 A2599.1798 F3112.6685 (x_theta)
G1 X154.8958 Y0 A2617.2297 F3114.7611 (x_theta)
G1 X154.7917 Y0 A2635.2796 F3116.8565 (x_theta)
G1 X154.6875 Y0 A2653.3294 F3118.9546 (x_theta)
G1 X154.5833 Y0 A2671.3793 F3121.0557 (x_theta)
G1 X154.4792 Y0 A2689.4291 F3123.1595 (x_theta)
G1 X154.375 Y0 A2707.479 F3125.2662 (x_theta)
G1 X154.2708 Y0 A2725.5289 F3127.3757 (x_theta)
G1 X154.1667 Y0 A2743.5787 F3129.4881 (x_theta)
G1 X154.0625 Y0 A2761.6286 F3131.6033 (x_theta)
G1 X153.9583 Y0 A2779.6784 F3133.7214 (x_theta)
G1 X153.8542 Y0 A2797.7283 F3135.8424 (x_theta)
G1 X153.75 Y0 A2815.7782 F3137.9662 (x_theta)
G1 X153.6458 Y0 A2833.828 F3140.0929 (x_theta)
G1 X153.5417 Y0 A2851.8779 F3142.2225 (x_theta)
G1 X153.4375 Y0 A2869.9277 F3144.355 (x_theta)
G1 X153.3333 Y0 A2887.9776 F3146.4904 (x_theta)
G1 X153.2292 Y0 A2906.0275 F3148.6287 (x_theta)
G1 X153.125 Y0 A2924.0773 F3150.7699 (x_theta)
G1 X153.0208 Y0 A2942.1272 F3152.914 (x_theta)
G1 X152.9167 Y0 A2960.177 F3155.061 (x_theta)
G1 X152.8125 Y0 A2978.2269 F3157.211 (x_theta)
G1 X152.7083 Y0 A2996.2768 F3159.3639 (x_theta)
G1 X152.6042 Y0 A3014.3266 F3161.5197 (x_theta)
G1 X152.5 Y0 A3032.3765 F3163.6785 (x_theta)
G1 X152.3958 Y0 A3050.4263 F3165.8402 (x_theta)
G1 X152.2917 Y0 A3068.4762 F3168.0049 (x_theta)
G1 X152.1875 Y0 A3086.5261 F3170.1725 (x_theta)
G1 X152.0833 Y0 A3104.5759 F3172.3431 (x_theta)
G1 X151.9792 Y0 A3122.6258 F3174.5167 (x_theta)
G1 X151.875 Y0 A3140.6756 F3176.6933 (x_theta)
G1 X151.7708 Y0 A3158.7255 F3178.8728 (x_theta)
G1 X151.6667 Y0 A3176.7754 F3181.0554 (x_theta)
G1 X151.5625 Y0 A3194.8252 F3183.2409 (x_theta)
G1 X151.4583 Y0 A3212.8751 F3185.4294 (x_theta)
G1 X151.3542 Y-0 A3230.9249 F3187.621 (x_theta)
G1 X151.25 Y-0 A3248.9748 F3189.8156 (x_theta)
G1 X151.1458 Y-0 A3267.0247 F3192.0132 (x_theta)
G1 X151.0417 Y-0 A3285.0745 F3194.2138 (x_theta)
G1 X150.9375 Y-0 A3303.1244 F3196.4175 (x_theta)
G1 X150.8333 Y-0 A3321.1742 F3198.6242 (x_theta)
G1 X150.7292 Y-0 A3339.2241 F3200.8339 (x_theta)
G1 X150.625 Y-0 A3357.274 F3203.0468 (x_theta)
G1 X150.5208 Y-0 A3375.3238 F3205.2626 (x_theta)
G1 X150.4167 Y-0 A3393.3737 F3207.4816 (x_theta)
G1 X150.3125 Y-0 A3411.4235 F3209.7036 (x_theta)
G1 X150.2083 Y-0 A3429.4734 F3211.9287 (x_theta)
G1 X150.1042 Y-0 A3447.5233 F3214.1569 (x_theta)
G1 X150 Y-0 A3465.5731 F3216.3882 (x_theta)
G1 X149.8958 Y-0 A3483.623 F3218.6225 (x_theta)
G1 X149.7917 Y-0 A3501.6728 F3220.86 (x_theta)
G1 X149.6875 Y-0 A3519.7227 F3223.1006 (x_theta)
G1 X149.5833 Y-0 A3537.7726 F3225.3443 (x_theta)
G1 X149.4792 Y-0 A3555.8224 F3227.5912 (x_theta)
G1 X149.375 Y-0 A3573.8723 F3229.8412 (x_theta)
G1 X149.2708 Y-0 A3591.9221 F3232.0943 (x_theta)
G1 X149.1667 Y-0 A3609.972 F3234.3505 (x_theta)
G1 X149.0625 Y-0 A3628.0219 F3236.6099 (x_theta)
G1 X148.9583 Y-0 A3646.0717 F3238.8725 (x_theta)
G1 X148.8542 Y-0 A3664.1216 F3241.1383 (x_theta)
G1 X148.75 Y-0 A3682.1714 F3243.4072 (x_theta)
G1 X148.6458 Y-0 A3700.2213 F3245.6793 (x_theta)
G1 X148.5417 Y-0 A3718.2712 F3247.9545 (x_theta)
G1 X148.4375 Y-0 A3736.321 F3250.233 (x_theta)
G1 X148.3333 Y-0 A3754.3709 F3252.5147 (x_theta)
G1 X148.2292 Y-0 A3772.4207 F3254.7995 (x_theta)
G1 X148.125 Y-0 A3790.4706 F3257.0876 (x_theta)
G1 X148.0208 Y-0 A3808.5205 F3259.3789 (x_theta)
G1 X147.9167 Y-0 A3826.5703 F3261.6734 (x_theta)
G1 X147.8125 Y-0 A3844.6202 F3263.9712 (x_theta)
G1 X147.7083 Y-0 A3862.67 F3266.2722 (x_theta)
G1 X147.6042 Y-0 A3880.7199 F3268.5765 (x_theta)
G1 X147.5 Y-0 A3898.7698 F3270.884 (x_theta)
G1 X147.3958 Y-0 A3916.8196 F3273.1947 (x_theta)
G1 X147.2917 Y-0 A3934.8695 F3275.5088 (x_theta)
G1 X147.1875 Y-0 A3952.9193 F3277.8261 (x_theta)
G1 X147.0833 Y-0 A3970.9692 F3280.1466 (x_theta)
G1 X146.9792 Y-0 A3989.0191 F3282.4705 (x_theta)
G1 X146.875 Y-0 A4007.0689 F3284.7977 (x_theta)
G1 X146.7708 Y-0 A4025.1188 F3287.1282 (x_theta)
G1 X146.6667 Y-0 A4043.1686 F3289.4619 (x_theta)
G1 X146.5625 Y-0 A4061.2185 F3291.799 (x_theta)
G1 X146.4583 Y-0 A4079.2684 F3294.1394 (x_theta)
G1 X146.3542 Y-0 A4097.3182 F3296.4832 (x_theta)
G1 X146.25 Y-0 A4115.3681 F3298.8303 (x_theta)
G1 X146.1458 Y-0 A4133.4179 F3301.1807 (x_theta)
G1 X146.0417 Y-0 A4151.4678 F3303.5345 (x_theta)
G1 X145.9375 Y-0 A4169.5177 F3305.8916 (x_theta)
G1 X145.8333 Y-0 A4187.5675 F3308.2521 (x_theta)
G1 X145.7292 Y-0 A4205.6174 F3310.616 (x_theta)
G1 X145.625 Y-0 A4223.6672 F3312.9833 (x_theta)
G1 X145.5208 Y-0 A4241.7171 F3315.3539 (x_theta)
G1 X145.4167 Y-0 A4259.767 F3317.728 (x_theta)
G1 X145.3125 Y-0 A4277.8168 F3320.1054 (x_theta)
G1 X145.2083 Y-0 A4295.8667 F3322.4863 (x_theta)
G1 X145.1042 Y-0 A4313.9165 F3324.8706 (x_theta)
G1 X145 Y-0 A4331.9664 F3327.2583 (x_theta)
G1 X144.8958 Y-0 A4350.0163 F3329.6494 (x_theta)
G1 X144.7917 Y-0 A4368.0661 F3332.044 (x_theta)
G1 X144.6875 Y-0 A4386.116 F3334.442 (x_theta)
G1 X144.5833 Y-0 A4404.1658 F3336.8435 (x_theta)
G1 X144.4792 Y-0 A4422.2157 F3339.2484 (x_theta)
G1 X144.375 Y-0 A4440.2656 F3341.6568 (x_theta)
G1 X144.2708 Y-0 A4458.3154 F3344.0687 (x_theta)
G1 X144.1667 Y-0 A4476.3653 F3346.484 (x_theta)
G1 X144.0625 Y-0 A4494.4151 F3348.9029 (x_theta)
G1 X143.9583 Y-0 A4512.465 F3351.3252 (x_theta)
G1 X143.8542 Y-0 A4530.5149 F3353.7511 (x_theta)
G1 X143.75 Y-0 A4548.5647 F3356.1805 (x_theta)
G1 X143.6458 Y-0 A4566.6146 F3358.6134 (x_theta)
G1 X143.5417 Y-0 A4584.6644 F3361.0498 (x_theta)
G1 X143.4375 Y-0 A4602.7143 F3363.4898 (x_theta)
G1 X143.3333 Y-0 A4620.7642 F3365.9333 (x_theta)
G1 X143.2292 Y-0 A4638.814 F3368.3803 (x_theta)
G1 X143.125 Y-0 A4656.8639 F3370.8309 (x_theta)
G1 X143.0208 Y-0 A4674.9137 F3373.2851 (x_theta)
G1 X142.9167 Y-0 A4692.9636 F3375.7429 (x_theta)
G1 X142.8125 Y-0 A4711.0135 F3378.2043 (x_theta)
G1 X142.7083 Y-0 A4729.0633 F3380.6692 (x_theta)
G1 X142.6042 Y-0 A4747.1132 F3383.1377 (x_theta)
G1 X142.5 Y-0 A4765.163 F3385.6099 (x_theta)
G1 X142.3958 Y-0 A4783.2129 F3388.0857 (x_theta)
G1 X142.2917 Y-0 A4801.2628 F3390.565 (x_theta)
G1 X142.1875 Y-0 A4819.3126 F3393.0481 (x_theta)
G1 X142.0833 Y-0 A4837.3625 F3395.5347 (x_theta)
G1 X141.9792 Y-0 A4855.4123 F3398.025 (x_theta)
G1 X141.875 Y-0 A4873.4622 F3400.519 (x_theta)
G1 X141.7708 Y-0 A4891.5121 F3403.0166 (x_theta)
G1 X141.6667 Y-0 A4909.5619 F3405.5179 (x_theta)
G1 X141.5625 Y-0 A4927.6118 F3408.0229 (x_theta)
G1 X141.4583 Y-0 A4945.6616 F3410.5316 (x_theta)
G1 X141.3542 Y-0 A4963.7115 F3413.0439 (x_theta)
G1 X141.25 Y-0 A4981.7614 F3415.56 (x_theta)
G1 X141.1458 Y-0 A4999.8112 F3418.0798 (x_theta)
G1 X141.0417 Y-0 A5017.8611 F3420.6033 (x_theta)
G1 X140.9375 Y-0 A5035.9109 F3423.1305 (x_theta)
G1 X140.8333 Y-0 A5053.9608 F3425.6615 (x_theta)
G1 X140.7292 Y-0 A5072.0107 F3428.1962 (x_theta)
G1 X140.625 Y-0 A5090.0605 F3430.7346 (x_theta)
G1 X140.5208 Y-0 A5108.1104 F3433.2769 (x_theta)
G1 X140.4167 Y-0 A5126.1602 F3435.8229 (x_theta)
G1 X140.3125 Y-0 A5144.2101 F3438.3726 (x_theta)
G1 X140.2083 Y-0 A5162.26 F3440.9262 (x_theta)
G1 X140.1042 Y-0 A5180.3098 F3443.4836 (x_theta)
G1 X140 Y-0 A5198.3597 F3446.0447 (x_theta)
G1 X139.8958 Y-0 A5216.4095 F3448.6097 (x_theta)
G1 X139.7917 Y-0 A5234.4594 F3451.1785 (x_theta)
G1 X139.6875 Y-0 A5252.5093 F3453.7511 (x_theta)
G1 X139.5833 Y-0 A5270.5591 F3456.3276 (x_theta)
G1 X139.4792 Y-0 A5288.609 F3458.9079 (x_theta)
G1 X139.375 Y-0 A5306.6588 F3461.4921 (x_theta)
G1 X139.2708 Y-0 A5324.7087 F3464.0801 (x_theta)
G1 X139.1667 Y-0 A5342.7586 F3466.672 (x_theta)
G1 X139.0625 Y-0 A5360.8084 F3469.2678 (x_theta)
G1 X138.9583 Y-0 A5378.8583 F3471.8675 (x_theta)
G1 X138.8542 Y-0 A5396.9081 F3474.471 (x_theta)
G1 X138.75 Y-0 A5414.958 F3477.0785 (x_theta)
G1 X138.6458 Y-0 A5433.0079 F3479.6899 (x_theta)
G1 X138.5417 Y-0 A5451.0577 F3482.3052 (x_theta)
G1 X138.4375 Y-0 A5469.1076 F3484.9245 (x_theta)
G1 X138.3333 Y-0 A5487.1574 F3487.5477 (x_theta)
G1 X138.2292 Y-0 A5505.2073 F3490.1749 (x_theta)
G1 X138.125 Y-0 A5523.2572 F3492.806 (x_theta)
G1 X138.0208 Y-0 A5541.307 F3495.4411 (x_theta)
G1 X137.9167 Y-0 A5559.3569 F3498.0801 (x_theta)
G1 X137.8125 Y-0 A5577.4067 F3500.7232 (x_theta)
G1 X137.7083 Y-0 A5595.4566 F3503.3702 (x_theta)
G1 X137.6042 Y-0 A5613.5065 F3506.0213 (x_theta)
G1 X137.5 Y-0 A5631.5563 F3508.6764 (x_theta)
G1 X137.3958 Y-0 A5649.6062 F3511.3355 (x_theta)
G1 X137.2917 Y-0 A5667.656 F3513.9986 (x_theta)
G1 X137.1875 Y-0 A5685.7059 F3516.6658 (x_theta)
G1 X137.0833 Y-0 A5703.7558 F3519.337 (x_theta)
G1 X136.9792 Y-0 A5721.8056 F3522.0123 (x_theta)
G1 X136.875 Y-0 A5739.8555 F3524.6916 (x_theta)
G1 X136.7708 Y-0 A5757.9053 F3527.3751 (x_theta)
G1 X136.6667 Y-0 A5775.9552 F3530.0626 (x_theta)
G1 X136.5625 Y-0 A5794.0051 F3532.7542 (x_theta)
G1 X136.4583 Y-0 A5812.0549 F3535.4499 (x_theta)
G1 X136.3542 Y-0 A5830.1048 F3538.1498 (x_theta)
G1 X136.25 Y-0 A5848.1546 F3540.8537 (x_theta)
G1 X136.1458 Y-0 A5866.2045 F3543.5619 (x_theta)
G1 X136.0417 Y-0 A5884.2544 F3546.2741 (x_theta)
G1 X135.9375 Y-0 A5902.3042 F3548.9905 (x_theta)
G1 X135.8333 Y-0 A5920.3541 F3551.7111 (x_theta)
G1 X135.7292 Y-0 A5938.4039 F3554.4359 (x_theta)
G1 X135.625 Y-0 A5956.4538 F3557.1648 (x_theta)
G1 X135.5208 Y-0 A5974.5037 F3559.8979 (x_theta)
G1 X135.4167 Y-0 A5992.5535 F3562.6352 (x_theta)
G1 X135.3125 Y-0 A6010.6034 F3565.3768 (x_theta)
G1 X135.2083 Y-0 A6028.6532 F3568.1226 (x_theta)
G1 X135.1042 Y-0 A6046.7031 F3570.8725 (x_theta)
G1 X135 Y-0 A6064.753 F3573.6268 (x_theta)
G1 X134.8958 Y-0 A6082.8028 F3576.3853 (x_theta)
G1 X134.7917 Y-0 A6100.8527 F3579.148 (x_theta)
G1 X134.6875 Y-0 A6118.9025 F3581.9151 (x_theta)
G1 X134.5833 Y-0 A6136.9524 F3584.6864 (x_theta)
G1 X134.4792 Y-0 A6155.0023 F3587.462 (x_theta)
G1 X134.375 Y-0 A6173.0521 F3590.2419 (x_theta)
G1 X134.2708 Y-0 A6191.102 F3593.0261 (x_theta)
G1 X134.1667 Y-0 A6209.1518 F3595.8146 (x_theta)
G1 X134.0625 Y-0 A6227.2017 F3598.6075 (x_theta)
G1 X133.9583 Y-0 A6245.2516 F3601.4047 (x_theta)
G1 X133.8542 Y-0 A6263.3014 F3604.2062 (x_theta)
G1 X133.75 Y-0 A6281.3513 F3607.0122 (x_theta)
G1 X133.6458 Y-0 A6299.4011 F3609.8225 (x_theta)
G1 X133.5417 Y-0 A6317.451 F3612.6371 (x_theta)
G1 X133.4375 Y-0 A6335.5009 F3615.4562 (x_theta)
G1 X133.3333 Y-0 A6353.5507 F3618.2797 (x_theta)
G1 X133.2292 Y-0 A6371.6006 F3621.1076 (x_theta)
G1 X133.125 Y-0 A6389.6504 F3623.9399 (x_theta)
G1 X133.0208 Y-0 A6407.7003 F3626.7766 (x_theta)
G1 X132.9167 Y-0 A6425.7502 F3629.6178 (x_theta)
G1 X132.8125 Y-0 A6443.8 F3632.4635 (x_theta)
G1 X132.7083 Y-0 A6461.8499 F3635.3136 (x_theta)
G1 X132.6042 Y-0 A6479.8997 F3638.1681 (x_theta)
G1 X132.5 Y-0 A6497.9496 F3641.0272 (x_theta)
G1 X132.3958 Y-0 A6515.9995 F3643.8908 (x_theta)
G1 X132.2917 Y-0 A6534.0493 F3646.7589 (x_theta)
G1 X132.1875 Y-0 A6552.0992 F3649.6315 (x_theta)
G1 X132.0833 Y-0 A6570.149 F3652.5086 (x_theta)
G1 X131.9792 Y-0 A6588.1989 F3655.3902 (x_theta)
G1 X131.875 Y-0 A6606.2488 F3658.2765 (x_theta)
G1 X131.7708 Y-0 A6624.2986 F3661.1672 (x_theta)
G1 X131.6667 Y-0 A6642.3485 F3664.0626 (x_theta)
G1 X131.5625 Y-0 A6660.3983 F3666.9625 (x_theta)
G1 X131.4583 Y-0 A6678.4482 F3669.867 (x_theta)
G1 X131.3542 Y-0 A6696.4981 F3672.7762 (x_theta)
G1 X131.25 Y-0 A6714.5479 F3675.6899 (x_theta)
G1 X131.1458 Y-0 A6732.5978 F3678.6083 (x_theta)
G1 X131.0417 Y-0 A6750.6476 F3681.5313 (x_theta)
G1 X130.9375 Y-0 A6768.6975 F3684.459 (x_theta)
G1 X130.8333 Y-0 A6786.7474 F3687.3913 (x_theta)
G1 X130.7292 Y-0 A6804.7972 F3690.3283 (x_theta)
G1 X130.625 Y-0 A6822.8471 F3693.2699 (x_theta)
G1 X130.5208 Y-0 A6840.8969 F3696.2163 (x_theta)
G1 X130.4167 Y-0 A6858.9468 F3699.1674 (x_theta)
G1 X130.3125 Y-0 A6876.9967 F3702.1232 (x_theta)
G1 X130.2083 Y-0 A6895.0465 F3705.0837 (x_theta)
G1 X130.1042 Y-0 A6913.0964 F3708.0489 (x_theta)
G1 X130 Y-0 A6931.1462 F3711.0189 (x_theta)
G1 X129.8958 Y-0 A6949.1961 F3713.9937 (x_theta)
G1 X129.7917 Y-0 A6967.246 F3716.9732 (x_theta)
G1 X129.6875 Y-0 A6985.2958 F3719.9576 (x_theta)
G1 X129.5833 Y-0 A7003.3457 F3722.9467 (x_theta)
G1 X129.4792 Y-0 A7021.3955 F3725.9406 (x_theta)
G1 X129.375 Y-0 A7039.4454 F3728.9393 (x_theta)
G1 X129.2708 Y-0 A7057.4953 F3731.9429 (x_theta)
G1 X129.1667 Y-0 A7075.5451 F3734.9513 (x_theta)
G1 X129.0625 Y-0 A7093.595 F3737.9646 (x_theta)
G1 X128.9583 Y-0 A7111.6448 F3740.9827 (x_theta)
G1 X128.8542 Y-0 A7129.6947 F3744.0058 (x_theta)
G1 X128.75 Y-0 A7147.7446 F3747.0337 (x_theta)
G1 X128.6458 Y-0 A7165.7944 F3750.0665 (x_theta)
G1 X128.5417 Y-0 A7183.8443 F3753.1042 (x_theta)
G1 X128.4375 Y-0 A7201.8941 F3756.1468 (x_theta)
G1 X128.3333 Y-0 A7219.944 F3759.1944 (x_theta)
G1 X128.2292 Y-0 A7237.9939 F3762.247 (x_theta)
G1 X128.125 Y-0 A7256.0437 F3765.3045 (x_theta)
G1 X128.0208 Y-0 A7274.0936 F3768.3669 (x_theta)
G1 X127.9167 Y-0 A7292.1434 F3771.4344 (x_theta)
G1 X127.8125 Y-0 A7310.1933 F3774.5068 (x_theta)
G1 X127.7083 Y-0 A7328.2432 F3777.5843 (x_theta)
G1 X127.6042 Y-0 A7346.293 F3780.6668 (x_theta)
G1 X127.5 Y-0 A7364.3429 F3783.7543 (x_theta)
G1 X127.3958 Y-0 A7382.3927 F3786.8469 (x_theta)
G1 X127.2917 Y-0 A7400.4426 F3789.9445 (x_theta)
G1 X127.1875 Y-0 A7418.4925 F3793.0472 (x_theta)
G1 X127.0833 Y-0 A7436.5423 F3796.155 (x_theta)
G1 X126.9792 Y-0 A7454.5922 F3799.2678 (x_theta)
G1 X126.875 Y-0 A7472.642 F3802.3858 (x_theta)
G1 X126.7708 Y-0 A7490.6919 F3805.5089 (x_theta)
G1 X126.6667 Y-0 A7508.7418 F3808.6372 (x_theta)
G1 X126.5625 Y-0 A7526.7916 F3811.7706 (x_theta)
G1 X126.4583 Y-0 A7544.8415 F3814.9091 (x_theta)
G1 X126.3542 Y-0 A7562.8913 F3818.0528 (x_theta)
G1 X126.25 Y-0 A7580.9412 F3821.2018 (x_theta)
G1 X126.1458 Y-0 A7598.9911 F3824.3559 (x_theta)
G1 X126.0417 Y-0 A7617.0409 F3827.5152 (x_theta)
G1 X125.9375 Y-0 A7635.0908 F3830.6797 (x_theta)
G1 X125.8333 Y-0 A7653.1406 F3833.8495 (x_theta)
G1 X125.7292 Y-0 A7671.1905 F3837.0245 (x_theta)
G1 X125.625 Y-0 A7689.2404 F3840.2048 (x_theta)
G1 X125.5208 Y-0 A7707.2902 F3843.3904 (x_theta)
G1 X125.4167 Y-0 A7725.3401 F3846.5813 (x_theta)
G1 X125.3125 Y-0 A7743.3899 F3849.7774 (x_theta)
G1 X125.2083 Y-0 A7761.4398 F3852.9789 (x_theta)
G1 X125.1042 Y-0 A7779.4897 F3856.1857 (x_theta)
G1 X125 Y-0 A7797.5395 F3859.3979 (x_theta)
G1 X124.8958 Y-0 A7815.5894 F3862.6154 (x_theta)
G1 X124.7917 Y-0 A7833.6392 F3865.8382 (x_theta)
G1 X124.6875 Y-0 A7851.6891 F3869.0665 (x_theta)
G1 X124.5833 Y-0 A7869.739 F3872.3002 (x_theta)
G1 X124.4792 Y-0 A7887.7888 F3875.5392 (x_theta)
G1 X124.375 Y-0 A7905.8387 F3878.7837 (x_theta)
G1 X124.2708 Y-0 A7923.8885 F3882.0336 (x_theta)
G1 X124.1667 Y-0 A7941.9384 F3885.289 (x_theta)
G1 X124.0625 Y-0 A7959.9883 F3888.5498 (x_theta)
G1 X123.9583 Y-0 A7978.0381 F3891.8162 (x_theta)
G1 X123.8542 Y-0 A7996.088 F3895.088 (x_theta)
G1 X123.75 Y-0 A8014.1378 F3898.3653 (x_theta)
G1 X123.6458 Y-0 A8032.1877 F3901.6481 (x_theta)
G1 X123.5417 Y-0 A8050.2376 F3904.9365 (x_theta)
G1 X123.4375 Y-0 A8068.2874 F3908.2304 (x_theta)
G1 X123.3333 Y-0 A8086.3373 F3911.5299 (x_theta)
G1 X123.2292 Y-0 A8104.3871 F3914.8349 (x_theta)
G1 X123.125 Y-0 A8122.437 F3918.1456 (x_theta)
G1 X123.0208 Y-0 A8140.4869 F3921.4618 (x_theta)
G1 X122.9167 Y-0 A8158.5367 F3924.7837 (x_theta)
G1 X122.8125 Y-0 A8176.5866 F3928.1112 (x_theta)
G1 X122.7083 Y-0 A8194.6364 F3931.4443 (x_theta)
G1 X122.6042 Y-0 A8212.6863 F3934.7831 (x_theta)
G1 X122.5 Y-0 A8230.7362 F3938.1276 (x_theta)
G1 X122.3958 Y-0 A8248.786 F3941.4778 (x_theta)
G1 X122.2917 Y-0 A8266.8359 F3944.8337 (x_theta)
G1 X122.1875 Y-0 A8284.8857 F3948.1953 (x_theta)
G1 X122.0833 Y-0 A8302.9356 F3951.5626 (x_theta)
G1 X121.9792 Y-0 A8320.9855 F3954.9357 (x_theta)
G1 X121.875 Y-0 A8339.0353 F3958.3145 (x_theta)
G1 X121.7708 Y-0 A8357.0852 F3961.6991 (x_theta)
G1 X121.6667 Y-0 A8375.135 F3965.0895 (x_theta)
G1 X121.5625 Y-0 A8393.1849 F3968.4858 (x_theta)
G1 X121.4583 Y-0 A8411.2348 F3971.8878 (x_theta)
G1 X121.3542 Y-0 A8429.2846 F3975.2957 (x_theta)
G1 X121.25 Y-0 A8447.3345 F3978.7094 (x_theta)
G1 X121.1458 Y-0 A8465.3843 F3982.129 (x_theta)
G1 X121.0417 Y-0 A8483.4342 F3985.5545 (x_theta)
G1 X120.9375 Y-0 A8501.4841 F3988.9859 (x_theta)
G1 X120.8333 Y-0 A8519.5339 F3992.4232 (x_theta)
G1 X120.7292 Y-0 A8537.5838 F3995.8664 (x_theta)
G1 X120.625 Y-0 A8555.6336 F3999.3156 (x_theta)
G1 X120.5208 Y-0 A8573.6835 F4002.7707 (x_theta)
G1 X120.4167 Y-0 A8591.7334 F4006.2318 (x_theta)
G1 X120.3125 Y-0 A8609.7832 F4009.6989 (x_theta)
G1 X120.2083 Y-0 A8627.8331 F4013.172 (x_theta)
G1 X120.1042 Y-0 A8645.8829 F4016.6512 (x_theta)
G1 X120 Y-0 A8663.9328 F4020.1363 (x_theta)
(contour 9 reversed)
M5
G4 P0.8
G0 X150 Y-0 A8663.9328
M3
G4 P2.5
G1 F700
G1 X150 Y-0 A8681.9827 F3217.4514 (x_theta)
G1 X150 Y-0 A8700.0325 F3217.4514 (x_theta)
G1 X150 Y-0 A8718.0824 F3217.4514 (y_theta)
G1 X150 Y-0 A8736.1322 F3217.4514 (x_theta)
G1 X150 Y-0 A8754.1821 F3217.4514 (x_theta)
G1 X150 Y-0 A8772.2319 F3217.4514 (x_theta)
G1 X150 Y-0 A8790.2818 F3217.4514 (y_theta)
G1 X150 Y-0 A8808.3317 F3217.4514 (y_theta)
G1 X150 Y-0 A8826.3815 F3217.4514 (x_theta)
G1 X150 Y-0 A8844.4314 F3217.4514 (x_theta)
G1 X150 Y-0 A8862.4812 F3217.4514 (x_theta)
G1 X150 Y-0 A8880.5311 F3217.4514 (x_theta)
G1 X150 Y-0 A8898.581 F3217.4514 (y_theta)
G1 X150 Y-0 A8916.6308 F3217.4514 (x_theta)
G1 X150 Y-0 A8934.6807 F3217.4514 (y_theta)
G1 X150 Y-0 A8952.7305 F3217.4514 (x_theta)
G1 X150 Y-0 A8970.7804 F3217.4514 (x_theta)
G1 X150 Y-0 A8988.8303 F3217.4514 (x_theta)
G1 X150 Y-0 A9006.8801 F3217.4514 (x_theta)
G1 X150 Y-0 A9024.93 F3217.4514 (x_theta)
G1 X150 Y-0 A9042.9798 F3217.4514 (x_theta)
G1 X150 Y-0 A9061.0297 F3217.4514 (x_theta)
G1 X150 Y-0 A9079.0796 F3217.4514 (x_theta)
G1 X150 Y-0 A9097.1294 F3217.4514 (x_theta)
G1 X150 Y-0 A9115.1793 F3217.4514 (x_theta)
G1 X150 Y-0 A9133.2291 F3217.4514 (x_theta)
G1 X150 Y-0 A9151.279 F3217.4514 (x_theta)
G1 X150 Y-0 A9169.3289 F3217.4514 (x_theta)
G1 X150 Y-0 A9187.3787 F3217.4514 (y_theta)
G1 X150 Y-0 A9205.4286 F3217.4514 (x_theta)
G1 X150 Y-0 A9223.4784 F3217.4514 (y_theta)
G1 X150 Y-0 A9241.5283 F3217.4514 (y_theta)
G1 X150 Y-0 A9259.5782 F3217.4514 (x_theta)
G1 X150 Y-0 A9277.628 F3217.4514 (x_theta)
G1 X150 Y-0 A9295.6779 F3217.4514 (y_theta)
G1 X150 Y-0 A9313.7277 F3217.4514 (x_theta)
G1 X150 Y-0 A9331.7776 F3217.4514 (x_theta)
G1 X150 Y-0 A9349.8275 F3217.4514 (x_theta)
G1 X150 Y-0 A9367.8773 F3217.4514 (x_theta)
G1 X150 Y-0 A9385.9272 F3217.4514 (x_theta)
G1 X150 Y-0 A9403.977 F3217.4514 (x_theta)
G1 X150 Y-0 A9422.0269 F3217.4514 (x_theta)
G1 X150 Y-0 A9440.0768 F3217.4514 (x_theta)
G1 X150 Y-0 A9458.1266 F3217.4514 (y_theta)
G1 X150 Y-0 A9476.1765 F3217.4514 (y_theta)
G1 X150 Y-0 A9494.2263 F3217.4514 (y_theta)
G1 X150 Y-0 A9512.2762 F3217.4514 (x_theta)
G1 X150 Y-0 A9530.326 F3217.4514 (x_theta)
G1 X150 Y-0 A9548.3759 F3217.4514 (x_theta)
G1 X150 Y-0 A9566.4258 F3217.4514 (x_theta)
G1 X150 Y-0 A9584.4756 F3217.4514 (x_theta)
G1 X150 Y-0 A9602.5255 F3217.4514 (x_theta)
G1 X150 Y-0 A9620.5753 F3217.4514 (y_theta)
G1 X150 Y-0 A9638.6252 F3217.4514 (x_theta)
G1 X150 Y-0 A9656.6751 F3217.4514 (x_theta)
G1 X150 Y-0 A9674.7249 F3217.4514 (y_theta)
G1 X150 Y-0 A9692.7748 F3217.4514 (x_theta)
G1 X150 Y-0 A9710.8246 F3217.4514 (y_theta)
G1 X150 Y-0 A9728.8745 F3217.4514 (x_theta)
G1 X150 Y-0 A9746.9244 F3217.4514 (x_theta)
G1 X150 Y-0 A9764.9742 F3217.4514 (x_theta)
G1 X150 Y-0 A9783.0241 F3217.4514 (x_theta)
G1 X150 Y-0 A9801.0739 F3217.4514 (x_theta)
G1 X150 Y-0 A9819.1238 F3217.4514 (x_theta)
G1 X150 Y-0 A9837.1737 F3217.4514 (x_theta)
G1 X150 Y-0 A9855.2235 F3217.4514 (x_theta)
G1 X150 Y-0 A9873.2734 F3217.4514 (x_theta)
G1 X150 Y-0 A9891.3232 F3217.4514 (y_theta)
G1 X150 Y-0 A9909.3731 F3217.4514 (y_theta)
G1 X150 Y-0 A9927.423 F3217.4514 (y_theta)
G1 X150 Y-0 A9945.4728 F3217.4514 (x_theta)
G1 X150 Y-0 A9963.5227 F3217.4514 (y_theta)
G1 X150 Y-0 A9981.5725 F3217.4514 (y_theta)
G1 X150 Y-0 A9999.6224 F3217.4514 (x_theta)
G1 X150 Y-0 A10017.6723 F3217.4514 (x_theta)
G1 X150 Y-0 A10035.7221 F3217.4514 (x_theta)
G1 X150 Y-0 A10053.772 F3217.4514 (x_theta)
G1 X150 Y-0 A10071.8218 F3217.4514 (x_theta)
G1 X150 Y-0 A10089.8717 F3217.4514 (y_theta)
G1 X150 Y-0 A10107.9216 F3217.4514 (x_theta)
G1 X150 Y-0 A10125.9714 F3217.4514 (x_theta)
G1 X150 Y-0 A10144.0213 F3217.4514 (x_theta)
G1 X150 Y-0 A10162.0711 F3217.4514 (x_theta)
G1 X150 Y-0 A10180.121 F3217.4514 (x_theta)
G1 X150 Y-0 A10198.1709 F3217.4514 (x_theta)
G1 X150 Y-0 A10216.2207 F3217.4514 (x_theta)
G1 X150 Y-0 A10234.2706 F3217.4514 (x_theta)
G1 X150 Y-0 A10252.3204 F3217.4514 (x_theta)
G1 X150 Y-0 A10270.3703 F3217.4514 (y_theta)
G1 X150 Y-0 A10288.4201 F3217.4514 (x_theta)
G1 X150 Y-0 A10306.47 F3217.4514 (x_theta)
G1 X150 Y-0 A10324.5199 F3217.4514 (x_theta)
G1 X150 Y-0 A10342.5697 F3217.4514 (x_theta)
G1 X150 Y-0 A10360.6196 F3217.4514 (x_theta)
G1 X150 Y-0 A10378.6694 F3217.4514 (x_theta)
G1 X150 Y-0 A10396.7193 F3217.4514 (x_theta)
G1 X150 Y-0 A10414.7692 F3217.4514 (x_theta)
G1 X150 Y-0 A10432.819 F3217.4514 (y_theta)
G1 X150 Y-0 A10450.8689 F3217.4514 (x_theta)
G1 X150 Y-0 A10468.9187 F3217.4514 (x_theta)
G1 X150 Y-0 A10486.9686 F3217.4514 (x_theta)
G1 X150 Y-0 A10505.0185 F3217.4514 (y_theta)
G1 X150 Y-0 A10523.0683 F3217.4514 (x_theta)
G1 X150 Y-0 A10541.1182 F3217.4514 (x_theta)
G1 X150 Y-0 A10559.168 F3217.4514 (y_theta)
G1 X150 Y-0 A10577.2179 F3217.4514 (x_theta)
G1 X150 Y-0 A10595.2678 F3217.4514 (x_theta)
G1 X150 Y-0 A10613.3176 F3217.4514 (x_theta)
G1 X150 Y-0 A10631.3675 F3217.4514 (x_theta)
G1 X150 Y-0 A10649.4173 F3217.4514 (x_theta)
G1 X150 Y-0 A10667.4672 F3217.4514 (x_theta)
G1 X150 Y-0 A10685.5171 F3217.4514 (x_theta)
G1 X150 Y-0 A10703.5669 F3217.4514 (x_theta)
G1 X150 Y-0 A10721.6168 F3217.4514 (x_theta)
G1 X150 Y-0 A10739.6666 F3217.4514 (x_theta)
G1 X150 Y-0 A10757.7165 F3217.4514 (x_theta)
G1 X150 Y-0 A10775.7664 F3217.4514 (x_theta)
G1 X150 Y-0 A10793.8162 F3217.4514 (x_theta)
G1 X150 Y-0 A10811.8661 F3217.4514 (x_theta)
G1 X150 Y-0 A10829.9159 F3217.4514 (x_theta)
G1 X150 Y-0 A10847.9658 F3217.4514 (x_theta)
G1 X150 Y-0 A10866.0157 F3217.4514 (x_theta)
G1 X150 Y-0 A10884.0655 F3217.4514 (y_theta)
G1 X150 Y-0 A10902.1154 F3217.4514 (y_theta)
G1 X150 Y-0 A10920.1652 F3217.4514 (x_theta)
G1 X150 Y-0 A10938.2151 F3217.4514 (x_theta)
G1 X150 Y-0 A10956.265 F3217.4514 (x_theta)
G1 X150 Y-0 A10974.3148 F3217.4514 (x_theta)
G1 X150 Y-0 A10992.3647 F3217.4514 (x_theta)
G1 X150 Y-0 A11010.4145 F3217.4514 (x_theta)
G1 X150 Y-0 A11028.4644 F3217.4514 (y_theta)
G1 X150 Y-0 A11046.5143 F3217.4514 (x_theta)
G1 X150 Y-0 A11064.5641 F3217.4514 (x_theta)
G1 X150 Y-0 A11082.614 F3217.4514 (x_theta)
G1 X150 Y-0 A11100.6638 F3217.4514 (x_theta)
G1 X150 Y-0 A11118.7137 F3217.4514 (x_theta)
G1 X150 Y-0 A11136.7636 F3217.4514 (x_theta)
G1 X150 Y-0 A11154.8134 F3217.4514 (x_theta)
G1 X150 Y-0 A11172.8633 F3217.4514 (x_theta)
G1 X150 Y-0 A11190.9131 F3217.4514 (x_theta)
G1 X150 Y-0 A11208.963 F3217.4514 (x_theta)
G1 X150 Y-0 A11227.0129 F3217.4514 (x_theta)
G1 X150 Y-0 A11245.0627 F3217.4514 (x_theta)
G1 X150 Y-0 A11263.1126 F3217.4514 (x_theta)
G1 X150 Y-0 A11281.1624 F3217.4514 (x_theta)
G1 X150 Y-0 A11299.2123 F3217.4514 (x_theta)
G1 X150 Y-0 A11317.2622 F3217.4514 (x_theta)
G1 X150 Y-0 A11335.312 F3217.4514 (x_theta)
G1 X150 Y-0 A11353.3619 F3217.4514 (x_theta)
G1 X150 Y-0 A11371.4117 F3217.4514 (x_theta)
G1 X150 Y-0 A11389.4616 F3217.4514 (x_theta)
G1 X150 Y-0 A11407.5115 F3217.4514 (x_theta)
G1 X150 Y-0 A11425.5613 F3217.4514 (x_theta)
G1 X150 Y-0 A11443.6112 F3217.4514 (x_theta)
G1 X150 Y-0 A11461.661 F3217.4514 (x_theta)
G1 X150 Y-0 A11479.7109 F3217.4514 (y_theta)
G1 X150 Y-0 A11497.7608 F3217.4514 (x_theta)
G1 X150 Y-0 A11515.8106 F3217.4514 (x_theta)
G1 X150 Y-0 A11533.8605 F3217.4514 (y_theta)
G1 X150 Y-0 A11551.9103 F3217.4514 (x_theta)
G1 X150 Y-0 A11569.9602 F3217.4514 (x_theta)
G1 X150 Y-0 A11588.0101 F3217.4514 (x_theta)
G1 X150 Y-0 A11606.0599 F3217.4514 (x_theta)
G1 X150 Y-0 A11624.1098 F3217.4514 (x_theta)
G1 X150 Y-0 A11642.1596 F3217.4514 (x_theta)
G1 X150 Y-0 A11660.2095 F3217.4514 (x_theta)
G1 X150 Y-0 A11678.2594 F3217.4514 (x_theta)
G1 X150 Y-0 A11696.3092 F3217.4514 (y_theta)
G1 X150 Y-0 A11714.3591 F3217.4514 (x_theta)
G1 X150 Y-0 A11732.4089 F3217.4514 (y_theta)
G1 X150 Y-0 A11750.4588 F3217.4514 (y_theta)
G1 X150 Y-0 A11768.5087 F3217.4514 (x_theta)
G1 X150 Y-0 A11786.5585 F3217.4514 (x_theta)
G1 X150 Y-0 A11804.6084 F3217.4514 (x_theta)
G1 X150 Y-0 A11822.6582 F3217.4514 (x_theta)
G1 X150 Y-0 A11840.7081 F3217.4514 (y_theta)
G1 X150 Y-0 A11858.758 F3217.4514 (x_theta)
G1 X150 Y-0 A11876.8078 F3217.4514 (x_theta)
G1 X150 Y-0 A11894.8577 F3217.4514 (y_theta)
G1 X150 Y-0 A11912.9075 F3217.4514 (x_theta)
G1 X150 Y-0 A11930.9574 F3217.4514 (x_theta)
G1 X150 Y-0 A11949.0073 F3217.4514 (x_theta)
G1 X150 Y-0 A11967.0571 F3217.4514 (x_theta)
G1 X150 Y-0 A11985.107 F3217.4514 (y_theta)
G1 X150 Y-0 A12003.1568 F3217.4514 (y_theta)
G1 X150 Y-0 A12021.2067 F3217.4514 (x_theta)
G1 X150 Y-0 A12039.2566 F3217.4514 (x_theta)
G1 X150 Y-0 A12057.3064 F3217.4514 (x_theta)
G1 X150 Y-0 A12075.3563 F3217.4514 (x_theta)
G1 X150 Y-0 A12093.4061 F3217.4514 (x_theta)
G1 X150 Y-0 A12111.456 F3217.4514 (x_theta)
G1 X150 Y-0 A12129.5059 F3217.4514 (x_theta)
G1 X150 Y-0 A12147.5557 F3217.4514 (x_theta)
G1 X150 Y-0 A12165.6056 F3217.4514 (x_theta)
G1 X150 Y-0 A12183.6554 F3217.4514 (x_theta)
G1 X150 Y-0 A12201.7053 F3217.4514 (x_theta)
G1 X150 Y-0 A12219.7552 F3217.4514 (x_theta)
G1 X150 Y-0 A12237.805 F3217.4514 (x_theta)
G1 X150 Y-0 A12255.8549 F3217.4514 (x_theta)
G1 X150 Y-0 A12273.9047 F3217.4514 (x_theta)
G1 X150 Y-0 A12291.9546 F3217.4514 (x_theta)
G1 X150 Y-0 A12310.0045 F3217.4514 (y_theta)
G1 X150 Y-0 A12328.0543 F3217.4514 (x_theta)
G1 X150 Y-0 A12346.1042 F3217.4514 (x_theta)
G1 X150 Y-0 A12364.154 F3217.4514 (x_theta)
G1 X150 Y-0 A12382.2039 F3217.4514 (x_theta)
G1 X150 Y-0 A12400.2538 F3217.4514 (x_theta)
G1 X150 Y-0 A12418.3036 F3217.4514 (x_theta)
G1 X150 Y-0 A12436.3535 F3217.4514 (x_theta)
G1 X150 Y-0 A12454.4033 F3217.4514 (x_theta)
G1 X150 Y-0 A12472.4532 F3217.4514 (x_theta)
G1 X150 Y-0 A12490.5031 F3217.4514 (x_theta)
G1 X150 Y-0 A12508.5529 F3217.4514 (x_theta)
G1 X150 Y-0 A12526.6028 F3217.4514 (x_theta)
G1 X150 Y-0 A12544.6526 F3217.4514 (x_theta)
G1 X150 Y-0 A12562.7025 F3217.4514 (x_theta)
G1 X150 Y-0 A12580.7524 F3217.4514 (x_theta)
G1 X150 Y-0 A12598.8022 F3217.4514 (x_theta)
G1 X150 Y-0 A12616.8521 F3217.4514 (x_theta)
G1 X150 Y-0 A12634.9019 F3217.4514 (x_theta)
G1 X150 Y-0 A12652.9518 F3217.4514 (x_theta)
G1 X150 Y-0 A12671.0017 F3217.4514 (x_theta)
G1 X150 Y-0 A12689.0515 F3217.4514 (x_theta)
G1 X150 Y-0 A12707.1014 F3217.4514 (x_theta)
G1 X150 Y-0 A12725.1512 F3217.4514 (x_theta)
G1 X150 Y-0 A12743.2011 F3217.4514 (x_theta)
G1 X150 Y-0 A12761.251 F3217.4514 (x_theta)
G1 X150 Y-0 A12779.3008 F3217.4514 (x_theta)
G1 X150 Y-0 A12797.3507 F3217.4514 (x_theta)
G1 X150 Y-0 A12815.4005 F3217.4514 (x_theta)
G1 X150 Y-0 A12833.4504 F3217.4514 (x_theta)
G1 X150 Y-0 A12851.5003 F3217.4514 (x_theta)
G1 X150 Y-0 A12869.5501 F3217.4514 (x_theta)
G1 X150 Y-0 A12887.6 F3217.4514 (x_theta)
G1 X150 Y-0 A12905.6498 F3217.4514 (x_theta)
G1 X150 Y-0 A12923.6997 F3217.4514 (x_theta)
G1 X150 Y-0 A12941.7496 F3217.4514 (x_theta)
G1 X150 Y-0 A12959.7994 F3217.4514 (x_theta)
G1 X150 Y-0 A12977.8493 F3217.4514 (x_theta)
G1 X150 Y-0 A12995.8991 F3217.4514 (x_theta)
(contour 2)
M5
G4 P0.8
G0 X77.7818 Y77.7817 A12995.8991
M3
G4 P2.5
G1 F700
G1 X81.2788 Y77.7817 A12980.7433 F3113.3988 (x_theta)
G1 X84.7054 Y77.7817 A12966.5391 F2984.9962 (x_theta)
G1 X88.0696 Y77.7817 A12953.1867 F2865.0845 (x_theta)
G1 X91.3783 Y77.7817 A12940.6018 F2752.9593 (x_theta)
G1 X94.6375 Y77.7817 A12928.7116 F2647.988 (x_theta)
G1 X97.8519 Y77.7817 A12917.4535 F2549.6013 (x_theta)
G1 X101.026 Y77.7817 A12906.7729 F2457.2854 (x_theta)
G1 X104.1633 Y77.7817 A12896.6219 F2370.576 (x_theta)
G1 X107.2672 Y77.7817 A12886.9583 F2289.0525 (x_theta)
G1 X110.3404 Y77.7817 A12877.7446 F2212.3328 (x_theta)
G1 X113.3854 Y77.7817 A12868.9473 F2140.0695 (x_theta)
G1 X116.4045 Y77.7817 A12860.5365 F2071.9462 (x_theta)
G1 X119.3995 Y77.7817 A12852.4854 F2007.6737 (x_theta)
G1 X122.3724 Y77.7817 A12844.7696 F1946.9879 (x_theta)
G1 X125.3246 Y77.7817 A12837.3671 F1889.6465 (x_theta)
G1 X128.2576 Y77.7817 A12830.258 F1835.4275 (x_theta)
G1 X131.1726 Y77.7817 A12823.424 F1784.1267 (x_theta)
G1 X134.0709 Y77.7817 A12816.8485 F1735.5563 (x_theta)
G1 X136.9535 Y77.7817 A12810.5163 F1689.5429 (x_theta)
G1 X139.8213 Y77.7817 A12804.4133 F1645.9269 (x_theta)
G1 X142.6753 Y77.7817 A12798.5266 F1604.5604 (x_theta)
G1 X145.5163 Y77.7817 A12792.8443 F1565.3066 (x_theta)
G1 X148.345 Y77.7817 A12787.3555 F1528.0388 (x_theta)
G1 X151.1622 Y77.7817 A12782.05 F1492.6394 (x_theta)
(contour 3)
M5
G4 P0.8
G0 X33.5745 Y104.7509 A12782.05
M3
G4 P2.5
G1 F700
G1 X33.5745 Y107.3732 A12786.9551 F1484.7611 (y_theta)
G1 X33.5745 Y109.9898 A12791.6368 F1434.8052 (y_theta)
G1 X33.5745 Y112.6011 A12796.1102 F1388.5248 (y_theta)
G1 X33.5745 Y115.2074 A12800.3891 F1345.6087 (y_theta)
G1 X33.5745 Y117.8092 A12804.4861 F1305.7765 (y_theta)
G1 X33.5745 Y120.4066 A12808.4127 F1268.7755 (y_theta)
G1 X33.5745 Y123 A12812.1794 F1234.3766 (y_theta)
G1 X33.5745 Y125.5896 A12815.796 F1202.3725 (y_theta)
G1 X33.5745 Y128.1757 A12819.2713 F1172.5748 (y_theta)
G1 X33.5745 Y130.7584 A12822.6136 F1144.812 (y_theta)
G1 X33.5745 Y133.3379 A12825.8304 F1118.9279 (y_theta)
G1 X33.5745 Y135.9145 A12828.9287 F1094.7797 (y_theta)
G1 X33.5745 Y138.4883 A12831.9151 F1072.2371 (y_theta)
G1 X33.5745 Y141.0594 A12834.7955 F1051.1805 (y_theta)
G1 X33.5745 Y143.628 A12837.5755 F1031.5005 (y_theta)
G1 X33.5745 Y146.1942 A12840.2604 F1013.0966 (y_theta)
G1 X33.5745 Y148.7582 A12842.855 F995.8763 (y_theta)
G1 X33.5745 Y151.32 A12845.3638 F979.7548 (y_theta)
G1 X33.5745 Y153.8798 A12847.791 F964.6537 (y_theta)
G1 X33.5745 Y156.4377 A12850.1406 F950.5009 (y_theta)
G1 X33.5745 Y158.9937 A12852.4162 F937.2301 (y_theta)
G1 X33.5745 Y161.548 A12854.6214 F924.7796 (y_theta)
G1 X33.5745 Y164.1006 A12856.7594 F913.0929 (y_theta)
G1 X33.5745 Y166.6516 A12858.8332 F902.1175 (y_theta)
(contour 4)
M5
G4 P0.8
G0 X-60.8881 Y91.6114 A12858.8332
M3
G4 P2.5
G1 F700
G1 X-60.8881 Y94.5986 A12848.6993 F2475.7072 (y_theta)
G1 X-60.8881 Y97.5584 A12839.095 F2376.8445 (y_theta)
G1 X-60.8881 Y100.4932 A12829.977 F2284.6455 (y_theta)
G1 X-60.8881 Y103.4052 A12821.307 F2198.5582 (y_theta)
G1 X-60.8881 Y106.2962 A12813.0508 F2118.0865 (y_theta)
G1 X-60.8881 Y109.168 A12805.1778 F2042.7837 (y_theta)
G1 X-60.8881 Y112.0218 A12797.6605 F1972.2465 (y_theta)
G1 X-60.8881 Y114.8592 A12790.4741 F1906.1099 (y_theta)
G1 X-60.8881 Y117.6813 A12783.5962 F1844.0432 (y_theta)
G1 X-60.8881 Y120.4892 A12777.0064 F1785.7458 (y_theta)
G1 X-60.8881 Y123.2838 A12770.6862 F1730.9443 (y_theta)
G1 X-60.8881 Y126.066 A12764.6188 F1679.389 (y_theta)
G1 X-60.8881 Y128.8367 A12758.7886 F1630.8523 (y_theta)
G1 X-60.8881 Y131.5965 A12753.1815 F1585.1253 (y_theta)
G1 X-60.8881 Y134.3462 A12747.7844 F1542.017 (y_theta)
G1 X-60.8881 Y137.0863 A12742.5853 F1501.3517 (y_theta)
G1 X-60.8881 Y139.8174 A12737.5733 F1462.968 (y_theta)
G1 X-60.8881 Y142.54 A12732.7379 F1426.717 (y_theta)
G1 X-60.8881 Y145.2546 A12728.0699 F1392.4615 (y_theta)
G1 X-60.8881 Y147.9616 A12723.5603 F1360.0747 (y_theta)
G1 X-60.8881 Y150.6615 A12719.201 F1329.4394 (y_theta)
G1 X-60.8881 Y153.3546 A12714.9845 F1300.447 (y_theta)
G1 X-60.8881 Y156.0413 A12710.9036 F1272.9967 (y_theta)
G1 X-60.8881 Y158.7219 A12706.9517 F1246.9951 (y_theta)
(contour 5)
M5
G4 P0.8
G0 X-100.4803 Y44.7629 A12706.9517
M3
G4 P2.5
G1 F700
G1 X-103.2111 Y44.7629 A12713.7622 F1880.8656 (x_theta)
G1 X-105.9306 Y44.7629 A12720.2495 F1810.6338 (x_theta)
G1 X-108.6395 Y44.7629 A12726.4366 F1745.3157 (x_theta)
G1 X-111.3386 Y44.7629 A12732.3445 F1684.5024 (x_theta)
G1 X-114.0287 Y44.7629 A12737.9922 F1627.8262 (x_theta)
G1 X-116.7103 Y44.7629 A12743.3969 F1574.9555 (x_theta)
G1 X-119.384 Y44.7629 A12748.5744 F1525.5905 (x_theta)
G1 X-122.0503 Y44.7629 A12753.5391 F1479.4598 (x_theta)
G1 X-124.7098 Y44.7629 A12758.3041 F1436.3171 (x_theta)
G1 X-127.3628 Y44.7629 A12762.8815 F1395.9383 (x_theta)
G1 X-130.0098 Y44.7629 A12767.2823 F1358.1192 (x_theta)
G1 X-132.651 Y44.7629 A12771.5168 F1322.6735 (x_theta)
G1 X-135.2869 Y44.7629 A12775.5944 F1289.4305 (x_theta)
G1 X-137.9177 Y44.7629 A12779.5239 F1258.2342 (x_theta)
G1 X-140.5437 Y44.7629 A12783.3132 F1228.9413 (x_theta)
G1 X-143.1652 Y44.7629 A12786.97 F1201.42 (x_theta)
G1 X-145.7825 Y44.7629 A12790.5011 F1175.549 (x_theta)
G1 X-148.3957 Y44.7629 A12793.913 F1151.2169 (x_theta)
G1 X-151.0051 Y44.7629 A12797.2117 F1128.3203 (x_theta)
G1 X-153.6108 Y44.7629 A12800.403 F1106.7642 (x_theta)
G1 X-156.2131 Y44.7629 A12803.4919 F1086.4604 (x_theta)
G1 X-158.8121 Y44.7629 A12806.4834 F1067.3273 (x_theta)
G1 X-161.408 Y44.7629 A12809.3821 F1049.2895 (x_theta)
G1 X-164.0009 Y44.7629 A12812.1924 F1032.2767 (x_theta)
(contour 6)
M5
G4 P0.8
G0 X-95.5177 Y-54.5561 A12812.1924
M3
G4 P2.5
G1 F700
G1 X-98.3864 Y-54.5561 A12803.4728 F2239.9027 (x_theta)
G1 X-101.2355 Y-54.5561 A12795.1891 F2152.2161 (x_theta)
G1 X-104.0667 Y-54.5561 A12787.3079 F2070.508 (x_theta)
G1 X-106.8814 Y-54.5561 A12779.7992 F1994.283 (x_theta)
G1 X-109.6808 Y-54.5561 A12772.636 F1923.0955 (x_theta)
G1 X-112.4661 Y-54.5561 A12765.7939 F1856.5442 (x_theta)
G1 X-115.2384 Y-54.5561 A12759.2511 F1794.2668 (x_theta)
G1 X-117.9984 Y-54.5561 A12752.9876 F1735.9353 (x_theta)
G1 X-120.7472 Y-54.5561 A12746.9851 F1681.2522 (x_theta)
G1 X-123.4853 Y-54.5561 A12741.2272 F1629.9471 (x_theta)
G1 X-126.2136 Y-54.5561 A12735.6987 F1581.7739 (x_theta)
G1 X-128.9327 Y-54.5561 A12730.3858 F1536.5081 (x_theta)
G1 X-131.643 Y-54.5561 A12725.2756 F1493.9443 (x_theta)
G1 X-134.3452 Y-54.5561 A12720.3565 F1453.8947 (x_theta)
G1 X-137.0397 Y-54.5561 A12715.6177 F1416.1868 (x_theta)
G1 X-139.727 Y-54.5561 A12711.0491 F1380.6623 (x_theta)
G1 X-142.4074 Y-54.5561 A12706.6415 F1347.1756 (x_theta)
G1 X-145.0815 Y-54.5561 A12702.3864 F1315.5924 (x_theta)
G1 X-147.7494 Y-54.5561 A12698.2757 F1285.7888 (x_theta)
G1 X-150.4115 Y-54.5561 A12694.3021 F1257.6505 (x_theta)
G1 X-153.0682 Y-54.5561 A12690.4587 F1231.0715 (x_theta)
G1 X-155.7197 Y-54.5561 A12686.739 F1205.9537 (x_theta)
G1 X-158.3663 Y-54.5561 A12683.1371 F1182.2062 (x_theta)
G1 X-161.0082 Y-54.5561 A12679.6473 F1159.7444 (x_theta)
(contour 7)
M5
G4 P0.8
G0 X-48.706 Y-98.6292 A12679.6473
M3
G4 P2.5
G1 F700
G1 X-48.706 Y-101.4099 A12687.1931 F2024.4183 (y_theta)
G1 X-48.706 Y-104.1764 A12694.3739 F1947.13 (y_theta)
G1 X-48.706 Y-106.9298 A12701.2165 F1875.1854 (y_theta)
G1 X-48.706 Y-109.671 A12707.7451 F1808.1407 (y_theta)
G1 X-48.706 Y-112.4009 A12713.9815 F1745.597 (y_theta)
G1 X-48.706 Y-115.1205 A12719.9455 F1687.1947 (y_theta)
G1 X-48.706 Y-117.8303 A12725.6552 F1632.609 (y_theta)
G1 X-48.706 Y-120.531 A12731.1269 F1581.5458 (y_theta)
G1 X-48.706 Y-123.2233 A12736.3755 F1533.7382 (y_theta)
G1 X-48.706 Y-125.9076 A12741.4149 F1488.9435 (y_theta)
G1 X-48.706 Y-128.5845 A12746.2576 F1446.9408 (y_theta)
G1 X-48.706 Y-131.2544 A12750.9152 F1407.5282 (y_theta)
G1 X-48.706 Y-133.9178 A12755.3983 F1370.5214 (y_theta)
G1 X-48.706 Y-136.575 A12759.7168 F1335.7513 (y_theta)
G1 X-48.706 Y-139.2263 A12763.8797 F1303.063 (y_theta)
G1 X-48.706 Y-141.8722 A12767.8956 F1272.314 (y_theta)
G1 X-48.706 Y-144.5129 A12771.7721 F1243.3732 (y_theta)
G1 X-48.706 Y-147.1486 A12775.5166 F1216.1198 (y_theta)
G1 X-48.706 Y-149.7797 A12779.1358 F1190.4424 (y_theta)
G1 X-48.706 Y-152.4064 A12782.6361 F1166.238 (y_theta)
G1 X-48.706 Y-155.0289 A12786.0232 F1143.4112 (y_theta)
G1 X-48.706 Y-157.6475 A12789.3027 F1121.8737 (y_theta)
G1 X-48.706 Y-160.2622 A12792.4797 F1101.5437 (y_theta)
G1 X-48.706 Y-162.8733 A12795.559 F1082.3452 (y_theta)
M5
G4 P0.8
M65 P0
G4 P3.0
M64 P0
G53 G0 X-10 Y-436 (park home)
M2
