(Generated by svg_to_gcode.pyw)
G21
G90
G94
G17
G54
G0 F3000
(contour 71 reversed)
G0 X7.5202 Y31.0874 A0
G1 F1200
G1 X7.5202 Y34.6695 A-83.119 F24483.4531 (y_theta)
(contour 28)
G0 X9.0119 Y32.9091 A-83.119
G1 F1200
G1 X9.0119 Y29.5819 A4.6863 F25387.142 (y_theta)
(contour 46)
G0 X14.2442 Y26.1119 A4.6863
G1 F1200
G1 X14.2442 Y24.8213 A152.7652 F28274.6887 (y_theta)
(contour 83)
G0 X16.211 Y24.5169 A152.7652
G1 F1200
G1 X16.8428 Y24.5169 A233.1562 F27904.3334 (x_theta)
(contour 70)
G0 X16.6592 Y24.8489 A233.1562
G1 F1200
G1 X19.1039 Y24.8489 A319.4105 F26947.0624 (x_theta)
(contour 3 reversed)
G0 X13.8149 Y29.2589 A319.4105
G1 F1200
G1 X13.8149 Y71.1811 A114.8706 F5976.5468 (y_theta)
G1 X13.8149 Y66.6239 A-95.1427 F11743.1598 (y_theta)
G1 X13.8149 Y36.6815 A-168.6642 F3181.506 (y_theta)
(contour 25)
G0 X18.85 Y37.3561 A-168.6642
G1 F1200
G1 X18.85 Y35.6453 A-138.5987 F20115.4516 (y_theta)
(contour 81)
G0 X19.9506 Y33.9792 A-138.5987
G1 F1200
G1 X19.9506 Y32.5514 A-103.1503 F21286.5802 (y_theta)
(contour 26)
G0 X18.173 Y34.9622 A-103.1503
G1 F1200
G1 X18.173 Y30.6648 A87.5769 F21992.9486 (y_theta)
(contour 66)
G0 X28.8994 Y23.8235 A87.5769
G1 F1200
G1 X31.6225 Y23.8235 A176.4339 F21427.5722 (x_theta)
(contour 43)
G0 X33.1725 Y23.5453 A176.4339
G1 F1200
G1 X42.7413 Y23.5453 A293.0914 F14678.8778 (x_theta)
(contour 82)
G0 X34.0407 Y20.7418 A293.0914
G1 F1200
G1 X36.2628 Y20.7418 A312.8899 F10759.2647 (x_theta)
(contour 27 reversed)
G0 X36.2628 Y20.7418 A312.8899
G1 F1200
G1 X31.9452 Y20.7418 A270.183 F11930.3343 (x_theta)
(contour 45)
G0 X32.1167 Y20.7081 A270.183
G1 F1200
G1 X37.9845 Y20.7081 A324.3676 F11145.8818 (x_theta)
(contour 69 reversed)
G0 X42.4289 Y19.7867 A324.3676
G1 F1200
G1 X38.5114 Y19.7867 A296.5758 F8597.2105 (x_theta)
(contour 80)
G0 X38.8216 Y25.4946 A296.5758
G1 F1200
G1 X43.2825 Y25.4946 A329.1259 F8837.8556 (x_theta)
(contour 2 reversed)
G0 X48.7576 Y24.178 A329.1259
G1 F1200
G1 X-56.2123 Y24.178 A659.499 F3962.8324 (x_theta)
G1 X-56.2123 Y-56.0489 A530.3514 F2274.1145 (y_theta)
(contour 5 reversed)
G0 X-30.7199 Y-50.7582 A530.3514
G1 F1200
G1 X-30.7199 Y-60.9654 A365.9581 F12957.0359 (y_theta)
G1 X-30.7199 Y-42.694 A115.7779 F13688.9026 (y_theta)
G1 X-30.7199 Y-26.1226 A222.8965 F7849.1394 (y_theta)
G1 X-53.2702 Y-26.1226 A138.018 F4673.4419 (x_theta)
(contour 1 reversed)
G0 X-57.4117 Y-75.8716 A138.018
G1 F1200
G1 X18.8522 Y-75.8716 A-269.7223 F6526.987 (x_theta)
G1 X18.8522 Y-42.4384 A-777.792 F13270.2669 (y_theta)
G1 X18.8522 Y45.7939 A-443.6682 F4700.0114 (y_theta)
G1 X-54.7726 Y45.7939 A-488.3926 F1404.0579 (x_theta)
G1 X-83.3997 Y45.7939 A-841.8552 F9940.7313 (x_theta)
(contour 62)
G0 X-86.5004 Y40.8519 A-841.8552
G1 F1200
G1 X-86.7654 Y40.8519 A-891.1942 F8614.0736 (x_theta)
(contour 79)
G0 X-86.847 Y39.1591 A-891.1942
G1 F1200
G1 X-87.4651 Y39.1591 A-925.0676 F8636.3633 (x_theta)
(contour 63)
G0 X-90.7536 Y40.6542 A-925.0676
G1 F1200
G1 X-91.2561 Y40.6542 A-944.0725 F8280.5717 (x_theta)
(contour 87 reversed)
G0 X-91.1003 Y40.7563 A-944.0725
G1 F1200
G1 X-90.7579 Y40.7563 A-931.4303 F8283.0008 (x_theta)
(contour 39)
G0 X-95.5344 Y29.5886 A-931.4303
G1 F1200
G1 X-96.4106 Y29.5886 A-949.3521 F8225.0639 (x_theta)
(contour 38 reversed)
G0 X-79.265 Y26.416 A-949.3521
G1 F1200
G1 X-78.2209 Y26.416 A-920.0689 F9940.0953 (x_theta)
(contour 4)
G0 X-67.7659 Y13.1889 A-920.0689
G1 F1200
G1 X-32.7925 Y13.1889 A-699.5282 F7661.7058 (x_theta)
G1 X-16.3678 Y13.1889 A-1497.3095 F29281.4606 (x_theta)
G1 X-61.5205 Y13.1889 A-1208.8337 F7760.0119 (x_theta)
(contour 86)
G0 X-68.3157 Y19.384 A-1208.8337
G1 F1200
G1 X-70.3481 Y19.384 A-1225.2627 F9774.2801 (x_theta)
(contour 35 reversed)
G0 X-59.6958 Y28.6521 A-1225.2627
G1 F1200
G1 X-58.5622 Y28.6521 A-1212.4714 F12606.0951 (x_theta)
(contour 77)
G0 X-62.1991 Y36.3923 A-1212.4714
G1 F1200
G1 X-65.4152 Y36.3923 A-1247.1722 F11279.5275 (x_theta)
(contour 58 reversed)
G0 X-69.0757 Y33.7988 A-1247.1722
G1 F1200
G1 X-64.5657 Y33.7988 A-1202.4859 F11073.028 (x_theta)
(contour 37)
G0 X-65.1697 Y33.2185 A-1202.4859
G1 F1200
G1 X-70.3491 Y33.2185 A-1251.8052 F10992.0253 (x_theta)
(contour 59 reversed)
G0 X-72.8634 Y35.1636 A-1251.8052
G1 F1200
G1 X-68.2532 Y35.1636 A-1210.0691 F10528.4117 (x_theta)
(contour 61)
G0 X-77.9006 Y42.268 A-1210.0691
G1 F1200
G1 X-78.9629 Y42.268 A-1219.7957 F9315.3498 (x_theta)
(contour 7 reversed)
G0 X-89.1664 Y37.243 A-1219.7957
G1 F1200
G1 X-77.1167 Y37.243 A-1296.8752 F7769.3982 (x_theta)
G1 X-67.3236 Y37.243 A-1233.0048 F7917.8145 (x_theta)
G1 X-52.9993 Y37.243 A-1335.2878 F8652.231 (x_theta)
(contour 76)
G0 X-53.7606 Y34.7035 A-1335.2878
G1 F1200
G1 X-56.46 Y34.7035 A-1354.6905 F8708.3781 (x_theta)
(contour 56 reversed)
G0 X-56.8675 Y34.4307 A-1354.6905
G1 F1200
G1 X-54.153 Y34.4307 A-1335.4324 F8597.5585 (x_theta)
(contour 8)
G0 X-54.0788 Y34.4633 A-1335.4324
G1 F1200
G1 X-65.4463 Y34.4633 A-1380.7543 F4932.5721 (x_theta)
G1 X-78.131 Y34.4633 A-1289.0988 F8753.4484 (x_theta)
G1 X-88.3689 Y34.4633 A-1332.0467 F5175.0584 (x_theta)
(contour 60 reversed)
G0 X-88.3401 Y34.4761 A-1332.0467
G1 F1200
G1 X-83.1908 Y34.4761 A-1308.3831 F5643.6564 (x_theta)
(contour 78)
G0 X-83.5753 Y34.0821 A-1308.3831
G1 F1200
G1 X-87.9894 Y34.0821 A-1328.7657 F5669.5417 (x_theta)
(contour 36 reversed)
G0 X-82.7605 Y29.0204 A-1328.7657
G1 F1200
G1 X-80.4845 Y29.0204 A-1318.219 F5688.8475 (x_theta)
(contour 57 reversed)
G0 X-77.5776 Y31.8229 A-1318.219
G1 F1200
G1 X-74.0074 Y31.8229 A-1298.3842 F6773.9348 (x_theta)
(contour 34)
G0 X-68.7566 Y19.5943 A-1298.3842
G1 F1200
G1 X-71.8543 Y19.5943 A-1315.5582 F6760.315 (x_theta)
(contour 55)
G0 X-71.6503 Y18.7644 A-1315.5582
G1 F1200
G1 X-73.2407 Y18.7644 A-1323.5782 F6169.2001 (x_theta)
(contour 53)
G0 X-70.9683 Y4.2677 A-1323.5782
G1 F1200
G1 X-74.5197 Y4.2677 A-1338.9679 F5336.8045 (x_theta)
(contour 33)
G0 X-75.7904 Y2.6082 A-1338.9679
G1 F1200
G1 X-83.0807 Y2.6082 A-1365.2309 F4486.3612 (x_theta)
(contour 85 reversed)
G0 X-82.1501 Y2.9698 A-1365.2309
G1 F1200
G1 X-78.4955 Y2.9698 A-1352.5582 F4330.7213 (x_theta)
(contour 75 reversed)
G0 X-80.1078 Y2.4528 A-1352.5582
G1 F1200
G1 X-76.4761 Y2.4528 A-1338.9364 F4658.1511 (x_theta)
(contour 54)
G0 X-86.1329 Y8.4662 A-1338.9364
G1 F1200
G1 X-87.8923 Y8.4662 A-1345.1429 F4399.8361 (x_theta)
(contour 52)
G0 X-95.8336 Y-16.3488 A-1345.1429
G1 F1200
G1 X-98.7927 Y-16.3488 A-1353.2642 F3505.2095 (x_theta)
(contour 74)
G0 X-100.6981 Y-18.3348 A-1353.2642
G1 F1200
G1 X-102.6843 Y-18.3348 A-1358.3255 F3284.9068 (x_theta)
(contour 32)
G0 X-102.7536 Y-18.993 A-1358.3255
G1 F1200
G1 X-105.7405 Y-18.993 A-1365.5671 F3147.1814 (x_theta)
(contour 19 reversed)
G0 X-97.666 Y-55.6829 A-1365.5671
G1 F1200
G1 X-97.666 Y-47.0256 A-1327.1481 F5458.7984 (y_theta)
G1 X-82.5003 Y-47.0256 A-1256.1324 F5745.8848 (x_theta)
G1 X-82.5003 Y-43.7304 A-1172.6168 F8768.4154 (y_theta)
G1 X-68.0748 Y-43.7304 A-1066.9735 F8869.58 (x_theta)
G1 X-70.6191 Y-43.7304 A-965.7772 F10066.5161 (x_theta)
G1 X-55.821 Y-43.7304 A-824.4144 F10775.4632 (x_theta)
G1 X-62.7327 Y-43.7304 A-746.9398 F11240.7235 (x_theta)
G1 X-62.7327 Y-28.58 A-761.1805 F1646.8916 (y_theta)
G1 X-72.6302 Y-28.58 A-702.9125 F7165.735 (x_theta)
G1 X-66.2642 Y-28.58 A-562.2657 F10996.2252 (x_theta)
G1 X-78.7225 Y-28.58 A-540.1099 F2448.3302 (x_theta)
G1 X-78.7225 Y-26.5363 A-448.7423 F9893.8117 (y_theta)
G1 X-92.2059 Y-26.5363 A-446.3263 F1219.111 (x_theta)
G1 X-92.2059 Y-25.4823 A-357.1511 F8612.425 (y_theta)
G1 X-104.6193 Y-25.4823 A-364.4608 F1392.5946 (x_theta)
G1 X-105.6009 Y-25.4823 A-285.3274 F7629.0789 (x_theta)
G1 X-116.6609 Y-25.4823 A-296.3039 F1690.6649 (x_theta)
(contour 20)
G0 X-120.2687 Y-38.1092 A-296.3039
G1 F1200
G1 X-107.4885 Y-38.1092 A-290.8432 F1304.9528 (x_theta)
G1 X-106.5991 Y-38.1092 A-374.8101 F7261.636 (x_theta)
G1 X-91.9596 Y-38.1092 A-370.2032 F1258.015 (x_theta)
G1 X-91.9596 Y-41.0921 A-454.0002 F8244.8338 (y_theta)
G1 X-77.706 Y-41.0921 A-468.7084 F1724.3297 (x_theta)
G1 X-77.706 Y-46.2831 A-545.9013 F9273.1626 (y_theta)
G1 X-65.6483 Y-46.2831 A-585.0075 F4072.7013 (x_theta)
G1 X-65.6483 Y-60.0541 A-605.3126 F2137.9218 (y_theta)
G1 X-57.2274 Y-60.0541 A-677.817 F9662.2686 (x_theta)
G1 X-57.2274 Y-74.1452 A-695.1854 F1904.6578 (y_theta)
G1 X-55.1156 Y-74.1452 A-801.5094 F8871.0722 (x_theta)
G1 X-55.1156 Y-92.2333 A-780.8166 F1823.3433 (y_theta)
G1 X-55.1156 Y-95.8375 A-874.6822 F7574.8597 (y_theta)
G1 X-55.1156 Y-113.3413 A-860.8216 F1530.6709 (y_theta)
(contour 29 reversed)
G0 X-55.1324 Y-108.1902 A-860.8216
G1 F1200
G1 X-55.1324 Y-104.8174 A-869.6309 F3356.0797 (y_theta)
(contour 72 reversed)
G0 X-55.4784 Y-100.9135 A-869.6309
G1 F1200
G1 X-55.4784 Y-98.6293 A-876.0351 F3572.0773 (y_theta)
(contour 48 reversed)
G0 X-47.405 Y-89.8967 A-876.0351
G1 F1200
G1 X-47.405 Y-86.4961 A-887.165 F4106.7274 (y_theta)
(contour 31 reversed)
G0 X-57.279 Y-69.435 A-887.165
G1 F1200
G1 X-57.279 Y-65.5755 A-902.2143 F4830.6853 (y_theta)
(contour 51)
G0 X-57.4072 Y-65.6991 A-902.2143
G1 F1200
G1 X-57.4072 Y-68.2821 A-892.0413 F4876.2234 (y_theta)
(contour 73 reversed)
G0 X-32.1536 Y-23.5139 A-892.0413
G1 F1200
G1 X-32.1536 Y-20.3006 A-924.0106 F11998.8866 (y_theta)
(contour 50)
G0 X-31.9478 Y-19.8181 A-924.0106
G1 F1200
G1 X-31.9478 Y-23.0538 A-891.3654 F12166.1688 (y_theta)
(contour 30 reversed)
G0 X-31.8216 Y-22.9282 A-891.3654
G1 F1200
G1 X-31.8216 Y-19.6892 A-924.2138 F12228.9143 (y_theta)
(contour 49 reversed)
G0 X-21.8961 Y-3.7243 A-924.2138
G1 F1200
G1 X-20.6023 Y-3.7243 A-868.063 F34835.349 (x_theta)
(contour 6 reversed)
G0 X-10.484 Y-16.4357 A-868.063
G1 F1200
G1 X-35.3596 Y-16.4357 A-1004.8463 F6706.6527 (x_theta)
G1 X-35.3596 Y-34.1657 A-1047.3509 F3117.0451 (y_theta)
G1 X-10.484 Y-34.1657 A-987.4071 F3130.791 (x_theta)
G1 X-10.484 Y-16.4357 A-868.063 F8166.1054 (y_theta)
(contour 23 reversed)
G0 X52.741 Y-70.6722 A-868.063
G1 F1200
G1 X52.741 Y-69.6029 A-877.1677 F9466.4363 (y_theta)
(contour 41)
G0 X53.2343 Y-68.9286 A-877.1677
G1 F1200
G1 X53.2343 Y-69.9847 A-867.9748 F9490.0414 (y_theta)
(contour 14 reversed)
G0 X52.8917 Y-70.6474 A-867.9748
G1 F1200
G1 X52.8917 Y-66.9304 A-955.1659 F9516.1378 (y_theta)
(contour 13 reversed)
G0 X62.2092 Y-84.5069 A-955.1659
G1 F1200
G1 X62.2092 Y-74.9017 A-990.1467 F4531.9779 (y_theta)
(contour 21)
G0 X62.4358 Y-75.1408 A-990.1467
G1 F1200
G1 X62.4358 Y-75.7385 A-979.1801 F8437.8803 (y_theta)
(contour 65)
G0 X62.3859 Y-77.8039 A-979.1801
G1 F1200
G1 X62.3859 Y-78.4752 A-968.8113 F8268.7604 (y_theta)
(contour 12)
G0 X75.3424 Y-71.1672 A-968.8113
G1 F1200
G1 X75.3424 Y-88.0752 A-1009.2427 F3110.3108 (y_theta)
(contour 11 reversed)
G0 X95.2752 Y-76.983 A-1009.2427
G1 F1200
G1 X78.2669 Y-76.983 A-1076.5248 F4896.3377 (x_theta)
(contour 10 reversed)
G0 X95.1692 Y-62.9195 A-1076.5248
G1 F1200
G1 X84.2282 Y-62.9195 A-1076.0716 F1201.0292 (x_theta)
(contour 9 reversed)
G0 X74.2442 Y-62.9766 A-1076.0716
G1 F1200
G1 X74.2442 Y-52.2108 A-1049.8783 F3156.624 (y_theta)
G1 X64.4863 Y-52.2108 A-1098.8835 F6144.8596 (x_theta)
G1 X54.5183 Y-52.2108 A-1126.3068 F3512.6613 (x_theta)
G1 X48.0452 Y-52.2108 A-1105.1306 F4105.0244 (x_theta)
G1 X47.6912 Y-52.2108 A-1031.9697 F11648.0398 (x_theta)
G1 X47.6912 Y-59.1905 A-1015.4653 F3080.8908 (y_theta)
G1 X47.6912 Y-67.897 A-1042.6136 F3929.4767 (y_theta)
G1 X59.7023 Y-67.897 A-986.2705 F5755.5788 (x_theta)
G1 X68.7799 Y-67.897 A-977.2874 F1688.247 (x_theta)
G1 X73.5834 Y-67.897 A-1006.2899 F7344.1007 (x_theta)
G1 X74.2442 Y-67.897 A-1056.5558 F8221.2275 (x_theta)
G1 X74.2442 Y-62.9766 A-1076.0716 F4908.4289 (y_theta)
(contour 18)
G0 X78.1694 Y-50.9729 A-1076.0716
G1 F1200
G1 X81.6315 Y-50.9729 A-1157.761 F8712.8412 (x_theta)
(contour 40)
G0 X80.8789 Y-51.5719 A-1157.761
G1 F1200
G1 X78.7651 Y-51.5719 A-1124.6599 F8699.3689 (x_theta)
(contour 22)
G0 X80.769 Y-50.5682 A-1124.6599
G1 F1200
G1 X78.1861 Y-50.5682 A-1071.1286 F8768.4543 (x_theta)
(contour 17)
G0 X63.4814 Y-44.6128 A-1071.1286
G1 F1200
G1 X63.4814 Y-36.9497 A-1127.8201 F8958.3296 (y_theta)
(contour 16 reversed)
G0 X43.4919 Y-36.558 A-1127.8201
G1 F1200
G1 X43.4919 Y-53.5503 A-1196.7799 F5015.6035 (y_theta)
(contour 24 reversed)
G0 X39.8607 Y-59.1619 A-1196.7799
G1 F1200
G1 X39.8607 Y-59.1559 A-1225.6191 F11566.0136 (y_theta)
(contour 42)
G0 X38.6791 Y-59.4825 A-1225.6191
G1 F1200
G1 X38.6791 Y-59.6023 A-1187.586 F11620.185 (y_theta)
(contour 15)
G0 X31.4358 Y-57.0142 A-1187.586
G1 F1200
G1 X31.4358 Y-40.6286 A-1038.9285 F10952.8805 (y_theta)
(contour 44 reversed)
G0 X44.3054 Y-1.6537 A-1038.9285
G1 F1200
G1 X55.0535 Y-1.6537 A-1179.3878 F15727.8192 (x_theta)
(contour 67)
G0 X54.624 Y-1.9446 A-1179.3878
G1 F1200
G1 X50.0899 Y-1.9446 A-1130.1154 F13095.4673 (x_theta)
(contour 68)
G0 X48.5788 Y-3.25 A-1130.1154
G1 F1200
G1 X45.1554 Y-3.25 A-1080.2504 F17520.04 (x_theta)
(contour 47 reversed)
G0 X40.2565 Y3.7981 A-1080.2504
G1 F1200
G1 X46.7137 Y3.7981 A-1163.969 F15604.457 (x_theta)
(contour 84 reversed)
G0 X45.043 Y2.9712 A-1163.969
G1 F1200
G1 X48.4038 Y2.9712 A-1198.9661 F12553.39 (x_theta)
(contour 64)
G0 X-71.0909 Y87.673 A-1198.9661
G1 F1200
G1 X-71.6379 Y87.673 A-1220.5858 F7300.7479 (x_theta)
G0 X157.1545 Y157.1545 A-1220.5858 (park NE)
M2
